<?xml version="1.0" encoding="UTF-8"?>
<osm version="0.6" generator="openstreetmap-cgimap 2.1.0 (621319 spike-08.openstreetmap.org)" copyright="OpenStreetMap and contributors" attribution="http://www.openstreetmap.org/copyright" license="http://opendatacommons.org/licenses/odbl/1-0/">
 <node id="35122545" visible="true" version="24" changeset="129117288" timestamp="2022-11-19T10:16:57Z" user="Osaka78" uid="9300097" lat="-33.4397488" lon="149.5610680">
  <tag k="name" v="Murray's Corner"/>
 </node>
 <node id="35122841" visible="true" version="18" changeset="129112054" timestamp="2022-11-19T07:02:30Z" user="Osaka78" uid="9300097" lat="-33.4390099" lon="149.5558213"/>
 <node id="35122842" visible="true" version="12" changeset="129112257" timestamp="2022-11-19T07:16:30Z" user="Osaka78" uid="9300097" lat="-33.4485948" lon="149.5537217"/>
 <node id="35122853" visible="true" version="12" changeset="129113095" timestamp="2022-11-19T08:05:09Z" user="Osaka78" uid="9300097" lat="-33.4512219" lon="149.5482464">
  <tag k="name" v="Reid Park"/>
 </node>
 <node id="35122854" visible="true" version="9" changeset="129113095" timestamp="2022-11-19T08:05:09Z" user="Osaka78" uid="9300097" lat="-33.4520985" lon="149.5472219"/>
 <node id="35122855" visible="true" version="10" changeset="129113095" timestamp="2022-11-19T08:05:09Z" user="Osaka78" uid="9300097" lat="-33.4524662" lon="149.5470020"/>
 <node id="35122856" visible="true" version="10" changeset="129113095" timestamp="2022-11-19T08:05:09Z" user="Osaka78" uid="9300097" lat="-33.4532394" lon="149.5467593">
  <tag k="name" v="Sulman Park"/>
 </node>
 <node id="35122857" visible="true" version="10" changeset="129113095" timestamp="2022-11-19T08:05:09Z" user="Osaka78" uid="9300097" lat="-33.4539586" lon="149.5470606"/>
 <node id="35122858" visible="true" version="9" changeset="129113095" timestamp="2022-11-19T08:05:09Z" user="Osaka78" uid="9300097" lat="-33.4551684" lon="149.5479695"/>
 <node id="35122869" visible="true" version="15" changeset="129116993" timestamp="2022-11-19T10:05:44Z" user="Osaka78" uid="9300097" lat="-33.4581838" lon="149.5570270"/>
 <node id="35122872" visible="true" version="8" changeset="5997339" timestamp="2010-10-09T21:16:53Z" user="MattGPS" uid="12973" lat="-33.4473650" lon="149.5597525"/>
 <node id="35122873" visible="true" version="12" changeset="129116993" timestamp="2022-11-19T10:05:44Z" user="Osaka78" uid="9300097" lat="-33.4466861" lon="149.5599703"/>
 <node id="35122874" visible="true" version="11" changeset="70603468" timestamp="2019-05-25T03:41:12Z" user="Osaka78" uid="9300097" lat="-33.4451817" lon="149.5608303"/>
 <node id="35122877" visible="true" version="12" changeset="129116993" timestamp="2022-11-19T10:05:44Z" user="Osaka78" uid="9300097" lat="-33.4436599" lon="149.5604287"/>
 <node id="440697134" visible="true" version="5" changeset="70463717" timestamp="2019-05-21T05:35:07Z" user="Osaka78" uid="9300097" lat="-33.4402882" lon="149.5554515"/>
 <node id="440697137" visible="true" version="7" changeset="129116993" timestamp="2022-11-19T10:05:44Z" user="Osaka78" uid="9300097" lat="-33.4568831" lon="149.5579578"/>
 <node id="440697138" visible="true" version="5" changeset="70603468" timestamp="2019-05-25T03:41:12Z" user="Osaka78" uid="9300097" lat="-33.4448326" lon="149.5610280"/>
 <node id="440697140" visible="true" version="4" changeset="70903332" timestamp="2019-06-03T23:35:30Z" user="Osaka78" uid="9300097" lat="-33.4418511" lon="149.5607443"/>
 <node id="440697142" visible="true" version="3" changeset="9456673" timestamp="2011-10-03T04:41:56Z" user="imroy" uid="119007" lat="-33.4412272" lon="149.5608597"/>
 <node id="440697159" visible="true" version="5" changeset="129113095" timestamp="2022-11-19T08:05:09Z" user="Osaka78" uid="9300097" lat="-33.4554055" lon="149.5482348"/>
 <node id="440709620" visible="true" version="8" changeset="83498149" timestamp="2020-04-13T22:09:13Z" user="Lyon-St-Clair" uid="9060372" lat="-33.4395823" lon="149.5598099">
  <tag k="barrier" v="gate"/>
  <tag k="source" v="GPS"/>
 </node>
 <node id="440709621" visible="true" version="6" changeset="86794270" timestamp="2020-06-17T23:23:22Z" user="HavocBM" uid="8805945" lat="-33.4390771" lon="149.5562205"/>
 <node id="440709622" visible="true" version="6" changeset="86794270" timestamp="2020-06-17T23:23:22Z" user="HavocBM" uid="8805945" lat="-33.4391189" lon="149.5560290"/>
 <node id="440709623" visible="true" version="8" changeset="86794270" timestamp="2020-06-17T23:23:22Z" user="HavocBM" uid="8805945" lat="-33.4391748" lon="149.5559132">
  <tag k="barrier" v="gate"/>
  <tag k="source" v="GPS"/>
 </node>
 <node id="440709624" visible="true" version="5" changeset="86794270" timestamp="2020-06-17T23:23:22Z" user="HavocBM" uid="8805945" lat="-33.4394055" lon="149.5557033"/>
 <node id="615150073" visible="true" version="5" changeset="70603468" timestamp="2019-05-25T03:41:13Z" user="Osaka78" uid="9300097" lat="-33.4421520" lon="149.5606911"/>
 <node id="615150082" visible="true" version="6" changeset="129116993" timestamp="2022-11-19T10:05:44Z" user="Osaka78" uid="9300097" lat="-33.4425445" lon="149.5606194"/>
 <node id="662087297" visible="true" version="3" changeset="70463867" timestamp="2019-05-21T05:41:30Z" user="Osaka78" uid="9300097" lat="-33.4482020" lon="149.5538023"/>
 <node id="662087326" visible="true" version="3" changeset="129113095" timestamp="2022-11-19T08:05:09Z" user="Osaka78" uid="9300097" lat="-33.4481896" lon="149.5507330"/>
 <node id="662087361" visible="true" version="5" changeset="129113095" timestamp="2022-11-19T08:05:09Z" user="Osaka78" uid="9300097" lat="-33.4479866" lon="149.5502815"/>
 <node id="662087550" visible="true" version="5" changeset="129113095" timestamp="2022-11-19T08:05:09Z" user="Osaka78" uid="9300097" lat="-33.4529107" lon="149.5468173"/>
 <node id="662087610" visible="true" version="4" changeset="37782498" timestamp="2016-03-12T12:54:18Z" user="Leon K" uid="46482" lat="-33.4556846" lon="149.5493851"/>
 <node id="662087886" visible="true" version="5" changeset="70603468" timestamp="2019-05-25T03:41:12Z" user="Osaka78" uid="9300097" lat="-33.4560669" lon="149.5581662"/>
 <node id="662088226" visible="true" version="3" changeset="70603468" timestamp="2019-05-25T03:41:12Z" user="Osaka78" uid="9300097" lat="-33.4471088" lon="149.5598021"/>
 <node id="662088228" visible="true" version="6" changeset="129116993" timestamp="2022-11-19T10:05:44Z" user="Osaka78" uid="9300097" lat="-33.4462620" lon="149.5602130"/>
 <node id="662088419" visible="true" version="4" changeset="129117288" timestamp="2022-11-19T10:16:57Z" user="Osaka78" uid="9300097" lat="-33.4400079" lon="149.5610940"/>
 <node id="662088425" visible="true" version="9" changeset="129117288" timestamp="2022-11-19T10:16:57Z" user="Osaka78" uid="9300097" lat="-33.4396304" lon="149.5608337">
  <tag k="direction" v="backward"/>
  <tag k="highway" v="give_way"/>
 </node>
 <node id="662088450" visible="true" version="4" changeset="129117288" timestamp="2022-11-19T10:16:57Z" user="Osaka78" uid="9300097" lat="-33.4399016" lon="149.5611086"/>
 <node id="942921078" visible="true" version="4" changeset="129113095" timestamp="2022-11-19T08:05:09Z" user="Osaka78" uid="9300097" lat="-33.4518885" lon="149.5474382"/>
 <node id="942921081" visible="true" version="3" changeset="70507965" timestamp="2019-05-22T09:53:38Z" user="Osaka78" uid="9300097" lat="-33.4523437" lon="149.5470603"/>
 <node id="942921084" visible="true" version="5" changeset="129113095" timestamp="2022-11-19T08:05:09Z" user="Osaka78" uid="9300097" lat="-33.4527946" lon="149.5468612"/>
 <node id="942921098" visible="true" version="5" changeset="129113095" timestamp="2022-11-19T08:05:09Z" user="Osaka78" uid="9300097" lat="-33.4556775" lon="149.5491597"/>
 <node id="942921101" visible="true" version="5" changeset="129116993" timestamp="2022-11-19T10:05:44Z" user="Osaka78" uid="9300097" lat="-33.4557150" lon="149.5514899">
  <tag k="name" v="Brock's Skyline"/>
 </node>
 <node id="942921243" visible="true" version="4" changeset="70902589" timestamp="2019-06-03T22:36:53Z" user="Osaka78" uid="9300097" lat="-33.4396055" lon="149.5599781"/>
 <node id="942921265" visible="true" version="2" changeset="70603468" timestamp="2019-05-25T03:41:12Z" user="Osaka78" uid="9300097" lat="-33.4469197" lon="149.5598534"/>
 <node id="1377584858" visible="true" version="5" changeset="86794270" timestamp="2020-06-17T23:23:22Z" user="HavocBM" uid="8805945" lat="-33.4390891" lon="149.5564181"/>
 <node id="1377585046" visible="true" version="3" changeset="70463717" timestamp="2019-05-21T05:35:07Z" user="Osaka78" uid="9300097" lat="-33.4414121" lon="149.5552157"/>
 <node id="1453349809" visible="true" version="5" changeset="86794270" timestamp="2020-06-17T23:23:22Z" user="HavocBM" uid="8805945" lat="-33.4392065" lon="149.5572215"/>
 <node id="1453349813" visible="true" version="5" changeset="86794270" timestamp="2020-06-17T23:23:22Z" user="HavocBM" uid="8805945" lat="-33.4393097" lon="149.5579362"/>
 <node id="1453349816" visible="true" version="4" changeset="70970279" timestamp="2019-06-05T23:24:24Z" user="Osaka78" uid="9300097" lat="-33.4394166" lon="149.5586420"/>
 <node id="1453349823" visible="true" version="4" changeset="70970279" timestamp="2019-06-05T23:24:24Z" user="Osaka78" uid="9300097" lat="-33.4395179" lon="149.5593610"/>
 <node id="1453422001" visible="true" version="4" changeset="129113095" timestamp="2022-11-19T08:05:09Z" user="Osaka78" uid="9300097" lat="-33.4545501" lon="149.5475027"/>
 <node id="1453422017" visible="true" version="5" changeset="129113095" timestamp="2022-11-19T08:05:09Z" user="Osaka78" uid="9300097" lat="-33.4553242" lon="149.5481264">
  <tag k="name" v="McPhillamy Park"/>
 </node>
 <node id="1453425712" visible="true" version="3" changeset="86794270" timestamp="2020-06-17T23:23:22Z" user="HavocBM" uid="8805945" lat="-33.4395950" lon="149.5556571"/>
 <node id="1453543345" visible="true" version="2" changeset="70463717" timestamp="2019-05-21T05:35:07Z" user="Osaka78" uid="9300097" lat="-33.4405485" lon="149.5553953"/>
 <node id="1453543368" visible="true" version="2" changeset="70463717" timestamp="2019-05-21T05:35:07Z" user="Osaka78" uid="9300097" lat="-33.4415634" lon="149.5551850"/>
 <node id="1453543374" visible="true" version="2" changeset="70463717" timestamp="2019-05-21T05:35:07Z" user="Osaka78" uid="9300097" lat="-33.4419222" lon="149.5551096"/>
 <node id="1453543382" visible="true" version="2" changeset="70463717" timestamp="2019-05-21T05:35:07Z" user="Osaka78" uid="9300097" lat="-33.4426578" lon="149.5549568"/>
 <node id="1453543387" visible="true" version="2" changeset="70463717" timestamp="2019-05-21T05:35:07Z" user="Osaka78" uid="9300097" lat="-33.4433278" lon="149.5548154"/>
 <node id="1453543389" visible="true" version="3" changeset="129112257" timestamp="2022-11-19T07:16:30Z" user="Osaka78" uid="9300097" lat="-33.4440517" lon="149.5546657"/>
 <node id="1453543392" visible="true" version="2" changeset="70463717" timestamp="2019-05-21T05:35:08Z" user="Osaka78" uid="9300097" lat="-33.4444757" lon="149.5545756"/>
 <node id="1453543408" visible="true" version="2" changeset="70463717" timestamp="2019-05-21T05:35:08Z" user="Osaka78" uid="9300097" lat="-33.4447993" lon="149.5545085"/>
 <node id="1453543410" visible="true" version="3" changeset="129112257" timestamp="2022-11-19T07:16:30Z" user="Osaka78" uid="9300097" lat="-33.4450267" lon="149.5544617"/>
 <node id="1453543424" visible="true" version="3" changeset="129112257" timestamp="2022-11-19T07:16:30Z" user="Osaka78" uid="9300097" lat="-33.4455978" lon="149.5543449"/>
 <node id="1453543432" visible="true" version="3" changeset="129112257" timestamp="2022-11-19T07:16:30Z" user="Osaka78" uid="9300097" lat="-33.4461592" lon="149.5542294"/>
 <node id="1453543433" visible="true" version="2" changeset="70463867" timestamp="2019-05-21T05:41:30Z" user="Osaka78" uid="9300097" lat="-33.4466495" lon="149.5541231"/>
 <node id="1453543446" visible="true" version="2" changeset="70603468" timestamp="2019-05-25T03:41:12Z" user="Osaka78" uid="9300097" lat="-33.4477295" lon="149.5596866"/>
 <node id="1453543451" visible="true" version="2" changeset="70463867" timestamp="2019-05-21T05:41:30Z" user="Osaka78" uid="9300097" lat="-33.4478673" lon="149.5538708"/>
 <node id="1453543458" visible="true" version="5" changeset="129113095" timestamp="2022-11-19T08:05:09Z" user="Osaka78" uid="9300097" lat="-33.4480688" lon="149.5487398">
  <tag k="name" v="The Cutting"/>
 </node>
 <node id="1453543460" visible="true" version="2" changeset="70603468" timestamp="2019-05-25T03:41:12Z" user="Osaka78" uid="9300097" lat="-33.4480704" lon="149.5596265"/>
 <node id="1453543470" visible="true" version="4" changeset="129113095" timestamp="2022-11-19T08:05:09Z" user="Osaka78" uid="9300097" lat="-33.4482936" lon="149.5509598"/>
 <node id="1453543474" visible="true" version="2" changeset="70463867" timestamp="2019-05-21T05:41:31Z" user="Osaka78" uid="9300097" lat="-33.4483868" lon="149.5537665"/>
 <node id="1453543482" visible="true" version="4" changeset="129113095" timestamp="2022-11-19T08:05:09Z" user="Osaka78" uid="9300097" lat="-33.4487265" lon="149.5518869"/>
 <node id="1453543484" visible="true" version="4" changeset="129113095" timestamp="2022-11-19T08:05:09Z" user="Osaka78" uid="9300097" lat="-33.4488286" lon="149.5491886"/>
 <node id="1453543487" visible="true" version="4" changeset="129113095" timestamp="2022-11-19T08:05:09Z" user="Osaka78" uid="9300097" lat="-33.4488698" lon="149.5492301"/>
 <node id="1453543508" visible="true" version="2" changeset="70603468" timestamp="2019-05-25T03:41:12Z" user="Osaka78" uid="9300097" lat="-33.4497421" lon="149.5593261"/>
 <node id="1453543521" visible="true" version="2" changeset="70603468" timestamp="2019-05-25T03:41:12Z" user="Osaka78" uid="9300097" lat="-33.4511786" lon="149.5590688"/>
 <node id="1453543524" visible="true" version="3" changeset="129116993" timestamp="2022-11-19T10:05:44Z" user="Osaka78" uid="9300097" lat="-33.4539785" lon="149.5585640"/>
 <node id="1453543529" visible="true" version="3" changeset="70603468" timestamp="2019-05-25T03:41:12Z" user="Osaka78" uid="9300097" lat="-33.4543275" lon="149.5585013"/>
 <node id="1453543531" visible="true" version="4" changeset="129116993" timestamp="2022-11-19T10:05:44Z" user="Osaka78" uid="9300097" lat="-33.4546664" lon="149.5584381"/>
 <node id="1453543534" visible="true" version="3" changeset="129116993" timestamp="2022-11-19T10:05:44Z" user="Osaka78" uid="9300097" lat="-33.4549210" lon="149.5583894"/>
 <node id="1453543539" visible="true" version="3" changeset="70603468" timestamp="2019-05-25T03:41:12Z" user="Osaka78" uid="9300097" lat="-33.4553285" lon="149.5583079"/>
 <node id="1453543542" visible="true" version="4" changeset="129116993" timestamp="2022-11-19T10:05:44Z" user="Osaka78" uid="9300097" lat="-33.4558748" lon="149.5582020"/>
 <node id="1453543552" visible="true" version="4" changeset="129116993" timestamp="2022-11-19T10:05:44Z" user="Osaka78" uid="9300097" lat="-33.4565403" lon="149.5580701"/>
 <node id="1453543575" visible="true" version="5" changeset="129116993" timestamp="2022-11-19T10:05:44Z" user="Osaka78" uid="9300097" lat="-33.4574085" lon="149.5576166"/>
 <node id="1453543583" visible="true" version="6" changeset="129116993" timestamp="2022-11-19T10:05:44Z" user="Osaka78" uid="9300097" lat="-33.4579428" lon="149.5572207"/>
 <node id="3076312293" visible="true" version="3" changeset="129112257" timestamp="2022-11-19T07:16:30Z" user="Osaka78" uid="9300097" lat="-33.4441559" lon="149.5546438"/>
 <node id="3110398832" visible="true" version="4" changeset="129116993" timestamp="2022-11-19T10:05:44Z" user="Osaka78" uid="9300097" lat="-33.4456743" lon="149.5605460"/>
 <node id="3110398833" visible="true" version="2" changeset="129117288" timestamp="2022-11-19T10:16:57Z" user="Osaka78" uid="9300097" lat="-33.4401144" lon="149.5610732"/>
 <node id="3113677733" visible="true" version="4" changeset="129117288" timestamp="2022-11-19T10:16:57Z" user="Osaka78" uid="9300097" lat="-33.4397945" lon="149.5610976"/>
 <node id="3890232185" visible="true" version="2" changeset="70603468" timestamp="2019-05-25T03:41:11Z" user="Osaka78" uid="9300097" lat="-33.4400664" lon="149.5606988"/>
 <node id="3890232186" visible="true" version="2" changeset="70603468" timestamp="2019-05-25T03:41:11Z" user="Osaka78" uid="9300097" lat="-33.4400896" lon="149.5607307"/>
 <node id="3890232187" visible="true" version="2" changeset="70603468" timestamp="2019-05-25T03:41:11Z" user="Osaka78" uid="9300097" lat="-33.4401404" lon="149.5608387"/>
 <node id="3890232188" visible="true" version="3" changeset="86794270" timestamp="2020-06-17T23:23:22Z" user="HavocBM" uid="8805945" lat="-33.4392809" lon="149.5557669"/>
 <node id="3890232189" visible="true" version="1" changeset="35924659" timestamp="2015-12-13T11:54:44Z" user="Leon K" uid="46482" lat="-33.4399738" lon="149.5606425"/>
 <node id="3890232192" visible="true" version="1" changeset="35924659" timestamp="2015-12-13T11:54:44Z" user="Leon K" uid="46482" lat="-33.4399078" lon="149.5605486"/>
 <node id="3890232193" visible="true" version="1" changeset="35924659" timestamp="2015-12-13T11:54:44Z" user="Leon K" uid="46482" lat="-33.4399391" lon="149.5606076"/>
 <node id="3890232194" visible="true" version="4" changeset="129117288" timestamp="2022-11-19T10:16:57Z" user="Osaka78" uid="9300097" lat="-33.4396479" lon="149.5609144"/>
 <node id="3890232195" visible="true" version="3" changeset="86794270" timestamp="2020-06-17T23:23:22Z" user="HavocBM" uid="8805945" lat="-33.4390854" lon="149.5561608"/>
 <node id="3890232196" visible="true" version="2" changeset="70902589" timestamp="2019-06-03T22:36:53Z" user="Osaka78" uid="9300097" lat="-33.4396576" lon="149.5601324"/>
 <node id="3890232198" visible="true" version="2" changeset="70603468" timestamp="2019-05-25T03:41:11Z" user="Osaka78" uid="9300097" lat="-33.4401610" lon="149.5608633"/>
 <node id="3890232199" visible="true" version="5" changeset="129111020" timestamp="2022-11-19T05:56:12Z" user="Osaka78" uid="9300097" lat="-33.4392561" lon="149.5556564">
  <tag k="direction" v="backward"/>
  <tag k="highway" v="give_way"/>
 </node>
 <node id="3890232200" visible="true" version="2" changeset="70603468" timestamp="2019-05-25T03:41:11Z" user="Osaka78" uid="9300097" lat="-33.4401887" lon="149.5608758"/>
 <node id="3890232201" visible="true" version="2" changeset="70902589" timestamp="2019-06-03T22:36:53Z" user="Osaka78" uid="9300097" lat="-33.4397561" lon="149.5602200"/>
 <node id="3890232202" visible="true" version="2" changeset="70902589" timestamp="2019-06-03T22:36:53Z" user="Osaka78" uid="9300097" lat="-33.4396921" lon="149.5601798"/>
 <node id="3890232203" visible="true" version="6" changeset="129117288" timestamp="2022-11-19T10:16:57Z" user="Osaka78" uid="9300097" lat="-33.4392655" lon="149.5582418">
  <tag k="name" v="Start Line"/>
  <tag k="note" v="Start line"/>
 </node>
 <node id="3890232204" visible="true" version="2" changeset="70902589" timestamp="2019-06-03T22:36:53Z" user="Osaka78" uid="9300097" lat="-33.4398300" lon="149.5603099"/>
 <node id="3890232205" visible="true" version="2" changeset="70603468" timestamp="2019-05-25T03:41:11Z" user="Osaka78" uid="9300097" lat="-33.4400325" lon="149.5606770"/>
 <node id="3890232206" visible="true" version="2" changeset="70603468" timestamp="2019-05-25T03:41:11Z" user="Osaka78" uid="9300097" lat="-33.4402278" lon="149.5608813"/>
 <node id="3890232208" visible="true" version="2" changeset="70902589" timestamp="2019-06-03T22:36:53Z" user="Osaka78" uid="9300097" lat="-33.4396391" lon="149.5600770"/>
 <node id="3890232212" visible="true" version="2" changeset="70902589" timestamp="2019-06-03T22:36:53Z" user="Osaka78" uid="9300097" lat="-33.4397981" lon="149.5602589"/>
 <node id="4056397140" visible="true" version="3" changeset="129113095" timestamp="2022-11-19T08:05:09Z" user="Osaka78" uid="9300097" lat="-33.4520104" lon="149.5473073"/>
 <node id="4056397149" visible="true" version="2" changeset="70603468" timestamp="2019-05-25T03:41:12Z" user="Osaka78" uid="9300097" lat="-33.4548696" lon="149.5583994"/>
 <node id="4056397177" visible="true" version="3" changeset="129113095" timestamp="2022-11-19T08:05:09Z" user="Osaka78" uid="9300097" lat="-33.4526307" lon="149.5469281"/>
 <node id="4056397188" visible="true" version="4" changeset="129112257" timestamp="2022-11-19T07:16:30Z" user="Osaka78" uid="9300097" lat="-33.4490800" lon="149.5530967">
  <tag k="name" v="Griffins Bend"/>
 </node>
 <node id="4056397198" visible="true" version="3" changeset="129116993" timestamp="2022-11-19T10:05:44Z" user="Osaka78" uid="9300097" lat="-33.4559865" lon="149.5530460"/>
 <node id="4056397199" visible="true" version="3" changeset="129116993" timestamp="2022-11-19T10:05:44Z" user="Osaka78" uid="9300097" lat="-33.4557447" lon="149.5517321"/>
 <node id="4056397201" visible="true" version="3" changeset="129112257" timestamp="2022-11-19T07:16:30Z" user="Osaka78" uid="9300097" lat="-33.4489250" lon="149.5534943"/>
 <node id="4056397208" visible="true" version="3" changeset="129116993" timestamp="2022-11-19T10:05:44Z" user="Osaka78" uid="9300097" lat="-33.4578902" lon="149.5561276"/>
 <node id="4056397252" visible="true" version="3" changeset="129113095" timestamp="2022-11-19T08:05:09Z" user="Osaka78" uid="9300097" lat="-33.4480577" lon="149.5504435"/>
 <node id="4056397272" visible="true" version="4" changeset="129116993" timestamp="2022-11-19T10:05:44Z" user="Osaka78" uid="9300097" lat="-33.4565156" lon="149.5536743">
  <tag k="name" v="The Dipper"/>
 </node>
 <node id="4056397285" visible="true" version="3" changeset="129116993" timestamp="2022-11-19T10:05:44Z" user="Osaka78" uid="9300097" lat="-33.4565289" lon="149.5539941"/>
 <node id="4056397296" visible="true" version="3" changeset="129113095" timestamp="2022-11-19T08:05:09Z" user="Osaka78" uid="9300097" lat="-33.4521658" lon="149.5471664"/>
 <node id="4438410439" visible="true" version="5" changeset="129117288" timestamp="2022-11-19T10:16:57Z" user="Osaka78" uid="9300097" lat="-33.4394894" lon="149.5598428">
  <tag k="name" v="Finish Line"/>
  <tag k="note" v="Finish line"/>
 </node>
 <node id="6487201061" visible="true" version="2" changeset="129113095" timestamp="2022-11-19T08:05:09Z" user="Osaka78" uid="9300097" lat="-33.4479035" lon="149.5500841"/>
 <node id="6487201062" visible="true" version="2" changeset="129113095" timestamp="2022-11-19T08:05:09Z" user="Osaka78" uid="9300097" lat="-33.4478521" lon="149.5499475"/>
 <node id="6487201068" visible="true" version="2" changeset="129113095" timestamp="2022-11-19T08:05:09Z" user="Osaka78" uid="9300097" lat="-33.4478750" lon="149.5492091"/>
 <node id="6487271698" visible="true" version="2" changeset="129113095" timestamp="2022-11-19T08:05:09Z" user="Osaka78" uid="9300097" lat="-33.4486514" lon="149.5490038"/>
 <node id="6487271709" visible="true" version="1" changeset="70464812" timestamp="2019-05-21T06:18:07Z" user="Osaka78" uid="9300097" lat="-33.4494638" lon="149.5495114"/>
 <node id="6487271710" visible="true" version="1" changeset="70464812" timestamp="2019-05-21T06:18:07Z" user="Osaka78" uid="9300097" lat="-33.4495925" lon="149.5495036"/>
 <node id="6487271711" visible="true" version="2" changeset="129113095" timestamp="2022-11-19T08:05:09Z" user="Osaka78" uid="9300097" lat="-33.4497522" lon="149.5494808"/>
 <node id="6487271716" visible="true" version="2" changeset="129113095" timestamp="2022-11-19T08:05:09Z" user="Osaka78" uid="9300097" lat="-33.4503595" lon="149.5493533"/>
 <node id="6487271717" visible="true" version="2" changeset="129113095" timestamp="2022-11-19T08:05:09Z" user="Osaka78" uid="9300097" lat="-33.4504959" lon="149.5493143"/>
 <node id="6490385617" visible="true" version="2" changeset="129113095" timestamp="2022-11-19T08:05:09Z" user="Osaka78" uid="9300097" lat="-33.4516744" lon="149.5476777"/>
 <node id="6490385619" visible="true" version="2" changeset="129113095" timestamp="2022-11-19T08:05:09Z" user="Osaka78" uid="9300097" lat="-33.4529827" lon="149.5467942"/>
 <node id="6499063210" visible="true" version="1" changeset="70603468" timestamp="2019-05-25T03:41:09Z" user="Osaka78" uid="9300097" lat="-33.4408649" lon="149.5608541"/>
 <node id="6499063211" visible="true" version="1" changeset="70603468" timestamp="2019-05-25T03:41:09Z" user="Osaka78" uid="9300097" lat="-33.4402612" lon="149.5608824"/>
 <node id="6499063244" visible="true" version="1" changeset="70603468" timestamp="2019-05-25T03:41:09Z" user="Osaka78" uid="9300097" lat="-33.4470002" lon="149.5598282"/>
 <node id="6499063245" visible="true" version="2" changeset="129116993" timestamp="2022-11-19T10:05:44Z" user="Osaka78" uid="9300097" lat="-33.4468223" lon="149.5598955"/>
 <node id="6499063246" visible="true" version="1" changeset="70603468" timestamp="2019-05-25T03:41:09Z" user="Osaka78" uid="9300097" lat="-33.4448798" lon="149.5610027"/>
 <node id="6499063247" visible="true" version="1" changeset="70603468" timestamp="2019-05-25T03:41:10Z" user="Osaka78" uid="9300097" lat="-33.4447351" lon="149.5610648"/>
 <node id="6519134337" visible="true" version="2" changeset="86794270" timestamp="2020-06-17T23:23:22Z" user="HavocBM" uid="8805945" lat="-33.4390994" lon="149.5560955"/>
 <node id="6519134338" visible="true" version="2" changeset="86794270" timestamp="2020-06-17T23:23:22Z" user="HavocBM" uid="8805945" lat="-33.4391438" lon="149.5559711"/>
 <node id="6519134339" visible="true" version="2" changeset="86794270" timestamp="2020-06-17T23:23:22Z" user="HavocBM" uid="8805945" lat="-33.4392452" lon="149.5558046"/>
 <node id="6519134340" visible="true" version="2" changeset="86794270" timestamp="2020-06-17T23:23:22Z" user="HavocBM" uid="8805945" lat="-33.4393169" lon="149.5557381"/>
 <node id="6519134341" visible="true" version="2" changeset="86794270" timestamp="2020-06-17T23:23:22Z" user="HavocBM" uid="8805945" lat="-33.4394640" lon="149.5556864"/>
 <node id="7399855112" visible="true" version="1" changeset="83498149" timestamp="2020-04-13T22:09:13Z" user="Lyon-St-Clair" uid="9060372" lat="-33.4398417" lon="149.5603458"/>
 <node id="7399855121" visible="true" version="1" changeset="83498149" timestamp="2020-04-13T22:09:13Z" user="Lyon-St-Clair" uid="9060372" lat="-33.4396726" lon="149.5601530"/>
 <node id="7630562519" visible="true" version="2" changeset="129117288" timestamp="2022-11-19T10:16:57Z" user="Osaka78" uid="9300097" lat="-33.4397080" lon="149.5610224"/>
 <node id="7630562527" visible="true" version="5" changeset="187437219" timestamp="2026-08-14T11:38:16Z" user="TheSwavu" uid="2622285" lat="-33.4390271" lon="149.5557925"/>
 <node id="7630562530" visible="true" version="1" changeset="86794270" timestamp="2020-06-17T23:23:22Z" user="HavocBM" uid="8805945" lat="-33.4393529" lon="149.5557190"/>
 <node id="7630562531" visible="true" version="1" changeset="86794270" timestamp="2020-06-17T23:23:22Z" user="HavocBM" uid="8805945" lat="-33.4392149" lon="149.5558472"/>
 <node id="7630562534" visible="true" version="1" changeset="86794270" timestamp="2020-06-17T23:23:22Z" user="HavocBM" uid="8805945" lat="-33.4390762" lon="149.5562839"/>
 <node id="7630562535" visible="true" version="1" changeset="86794270" timestamp="2020-06-17T23:23:22Z" user="HavocBM" uid="8805945" lat="-33.4390812" lon="149.5563504"/>
 <node id="7858534797" visible="true" version="2" changeset="129113095" timestamp="2022-11-19T08:05:09Z" user="Osaka78" uid="9300097" lat="-33.4487152" lon="149.5518632"/>
 <node id="10091505272" visible="true" version="2" changeset="129116993" timestamp="2022-11-19T10:05:44Z" user="Osaka78" uid="9300097" lat="-33.4559867" lon="149.5529313">
  <tag k="name" v="The Esses"/>
 </node>
 <node id="10091505273" visible="true" version="2" changeset="129116993" timestamp="2022-11-19T10:05:44Z" user="Osaka78" uid="9300097" lat="-33.4584167" lon="149.5565840">
  <tag k="name" v="Forrest's Elbow"/>
 </node>
 <node id="10091505274" visible="true" version="2" changeset="129116993" timestamp="2022-11-19T10:05:44Z" user="Osaka78" uid="9300097" lat="-33.4465344" lon="149.5600584">
  <tag k="name" v="The Chase"/>
 </node>
 <node id="10201085402" visible="true" version="1" changeset="129111020" timestamp="2022-11-19T05:56:12Z" user="Osaka78" uid="9300097" lat="-33.4390717" lon="149.5557355"/>
 <node id="10201085403" visible="true" version="2" changeset="129112054" timestamp="2022-11-19T07:02:30Z" user="Osaka78" uid="9300097" lat="-33.4390472" lon="149.5557640"/>
 <node id="10201085409" visible="true" version="1" changeset="129111020" timestamp="2022-11-19T05:56:12Z" user="Osaka78" uid="9300097" lat="-33.4391825" lon="149.5556741"/>
 <node id="10201085410" visible="true" version="1" changeset="129111020" timestamp="2022-11-19T05:56:12Z" user="Osaka78" uid="9300097" lat="-33.4390856" lon="149.5557210"/>
 <node id="10201085411" visible="true" version="1" changeset="129111020" timestamp="2022-11-19T05:56:12Z" user="Osaka78" uid="9300097" lat="-33.4390996" lon="149.5557088"/>
 <node id="10201085412" visible="true" version="1" changeset="129111020" timestamp="2022-11-19T05:56:12Z" user="Osaka78" uid="9300097" lat="-33.4391202" lon="149.5556952"/>
 <node id="10201085413" visible="true" version="1" changeset="129111020" timestamp="2022-11-19T05:56:12Z" user="Osaka78" uid="9300097" lat="-33.4391418" lon="149.5556856"/>
 <node id="10201136242" visible="true" version="1" changeset="129112054" timestamp="2022-11-19T07:02:30Z" user="Osaka78" uid="9300097" lat="-33.4389948" lon="149.5558514"/>
 <node id="10201136243" visible="true" version="1" changeset="129112054" timestamp="2022-11-19T07:02:30Z" user="Osaka78" uid="9300097" lat="-33.4389811" lon="149.5558858"/>
 <node id="10201136244" visible="true" version="1" changeset="129112054" timestamp="2022-11-19T07:02:30Z" user="Osaka78" uid="9300097" lat="-33.4389720" lon="149.5559163"/>
 <node id="10201136245" visible="true" version="1" changeset="129112054" timestamp="2022-11-19T07:02:30Z" user="Osaka78" uid="9300097" lat="-33.4389641" lon="149.5559540"/>
 <node id="10201136246" visible="true" version="1" changeset="129112054" timestamp="2022-11-19T07:02:30Z" user="Osaka78" uid="9300097" lat="-33.4389614" lon="149.5559862"/>
 <node id="10201136247" visible="true" version="1" changeset="129112054" timestamp="2022-11-19T07:02:30Z" user="Osaka78" uid="9300097" lat="-33.4389612" lon="149.5560193"/>
 <node id="10201136248" visible="true" version="1" changeset="129112054" timestamp="2022-11-19T07:02:30Z" user="Osaka78" uid="9300097" lat="-33.4389688" lon="149.5560844"/>
 <node id="10201152052" visible="true" version="1" changeset="129112257" timestamp="2022-11-19T07:16:30Z" user="Osaka78" uid="9300097" lat="-33.4486271" lon="149.5537107"/>
 <node id="10201152053" visible="true" version="1" changeset="129112257" timestamp="2022-11-19T07:16:30Z" user="Osaka78" uid="9300097" lat="-33.4486722" lon="149.5536972"/>
 <node id="10201152054" visible="true" version="1" changeset="129112257" timestamp="2022-11-19T07:16:30Z" user="Osaka78" uid="9300097" lat="-33.4487139" lon="149.5536801"/>
 <node id="10201152055" visible="true" version="1" changeset="129112257" timestamp="2022-11-19T07:16:30Z" user="Osaka78" uid="9300097" lat="-33.4487457" lon="149.5536631"/>
 <node id="10201152056" visible="true" version="1" changeset="129112257" timestamp="2022-11-19T07:16:30Z" user="Osaka78" uid="9300097" lat="-33.4487864" lon="149.5536375"/>
 <node id="10201152057" visible="true" version="1" changeset="129112257" timestamp="2022-11-19T07:16:30Z" user="Osaka78" uid="9300097" lat="-33.4488206" lon="149.5536109"/>
 <node id="10201152058" visible="true" version="1" changeset="129112257" timestamp="2022-11-19T07:16:30Z" user="Osaka78" uid="9300097" lat="-33.4488585" lon="149.5535751"/>
 <node id="10201152059" visible="true" version="1" changeset="129112257" timestamp="2022-11-19T07:16:30Z" user="Osaka78" uid="9300097" lat="-33.4488918" lon="149.5535373"/>
 <node id="10201152060" visible="true" version="1" changeset="129112257" timestamp="2022-11-19T07:16:30Z" user="Osaka78" uid="9300097" lat="-33.4489391" lon="149.5534727"/>
 <node id="10201152061" visible="true" version="1" changeset="129112257" timestamp="2022-11-19T07:16:30Z" user="Osaka78" uid="9300097" lat="-33.4489548" lon="149.5534488"/>
 <node id="10201152062" visible="true" version="1" changeset="129112257" timestamp="2022-11-19T07:16:30Z" user="Osaka78" uid="9300097" lat="-33.4489896" lon="149.5533876"/>
 <node id="10201152063" visible="true" version="1" changeset="129112257" timestamp="2022-11-19T07:16:30Z" user="Osaka78" uid="9300097" lat="-33.4490226" lon="149.5533159"/>
 <node id="10201152064" visible="true" version="1" changeset="129112257" timestamp="2022-11-19T07:16:30Z" user="Osaka78" uid="9300097" lat="-33.4490434" lon="149.5532619"/>
 <node id="10201152065" visible="true" version="1" changeset="129112257" timestamp="2022-11-19T07:16:30Z" user="Osaka78" uid="9300097" lat="-33.4490621" lon="149.5531970"/>
 <node id="10201152066" visible="true" version="1" changeset="129112257" timestamp="2022-11-19T07:16:30Z" user="Osaka78" uid="9300097" lat="-33.4490839" lon="149.5530646"/>
 <node id="10201152067" visible="true" version="1" changeset="129112257" timestamp="2022-11-19T07:16:30Z" user="Osaka78" uid="9300097" lat="-33.4490717" lon="149.5531501"/>
 <node id="10201152068" visible="true" version="1" changeset="129112257" timestamp="2022-11-19T07:16:30Z" user="Osaka78" uid="9300097" lat="-33.4490879" lon="149.5529822"/>
 <node id="10201152069" visible="true" version="1" changeset="129112257" timestamp="2022-11-19T07:16:30Z" user="Osaka78" uid="9300097" lat="-33.4490833" lon="149.5528909"/>
 <node id="10201152070" visible="true" version="1" changeset="129112257" timestamp="2022-11-19T07:16:30Z" user="Osaka78" uid="9300097" lat="-33.4490749" lon="149.5528214"/>
 <node id="10201152071" visible="true" version="1" changeset="129112257" timestamp="2022-11-19T07:16:30Z" user="Osaka78" uid="9300097" lat="-33.4490542" lon="149.5527129"/>
 <node id="10201152072" visible="true" version="1" changeset="129112257" timestamp="2022-11-19T07:16:30Z" user="Osaka78" uid="9300097" lat="-33.4490312" lon="149.5526136"/>
 <node id="10201152073" visible="true" version="1" changeset="129112257" timestamp="2022-11-19T07:16:30Z" user="Osaka78" uid="9300097" lat="-33.4489979" lon="149.5524975"/>
 <node id="10201152074" visible="true" version="1" changeset="129112257" timestamp="2022-11-19T07:16:30Z" user="Osaka78" uid="9300097" lat="-33.4489697" lon="149.5524183"/>
 <node id="10201184147" visible="true" version="1" changeset="129113095" timestamp="2022-11-19T08:05:09Z" user="Osaka78" uid="9300097" lat="-33.4478302" lon="149.5498759"/>
 <node id="10201184148" visible="true" version="1" changeset="129113095" timestamp="2022-11-19T08:05:09Z" user="Osaka78" uid="9300097" lat="-33.4478183" lon="149.5498131"/>
 <node id="10201184149" visible="true" version="1" changeset="129113095" timestamp="2022-11-19T08:05:09Z" user="Osaka78" uid="9300097" lat="-33.4478129" lon="149.5497563"/>
 <node id="10201184150" visible="true" version="1" changeset="129113095" timestamp="2022-11-19T08:05:09Z" user="Osaka78" uid="9300097" lat="-33.4478117" lon="149.5496892"/>
 <node id="10201184151" visible="true" version="1" changeset="129113095" timestamp="2022-11-19T08:05:09Z" user="Osaka78" uid="9300097" lat="-33.4478132" lon="149.5496401"/>
 <node id="10201184152" visible="true" version="1" changeset="129113095" timestamp="2022-11-19T08:05:09Z" user="Osaka78" uid="9300097" lat="-33.4478162" lon="149.5495888"/>
 <node id="10201184153" visible="true" version="1" changeset="129113095" timestamp="2022-11-19T08:05:09Z" user="Osaka78" uid="9300097" lat="-33.4478227" lon="149.5495069"/>
 <node id="10201184154" visible="true" version="1" changeset="129113095" timestamp="2022-11-19T08:05:09Z" user="Osaka78" uid="9300097" lat="-33.4478328" lon="149.5494215"/>
 <node id="10201184155" visible="true" version="1" changeset="129113095" timestamp="2022-11-19T08:05:09Z" user="Osaka78" uid="9300097" lat="-33.4478413" lon="149.5493630"/>
 <node id="10201184156" visible="true" version="1" changeset="129113095" timestamp="2022-11-19T08:05:09Z" user="Osaka78" uid="9300097" lat="-33.4478515" lon="149.5493095"/>
 <node id="10201184157" visible="true" version="1" changeset="129113095" timestamp="2022-11-19T08:05:09Z" user="Osaka78" uid="9300097" lat="-33.4480480" lon="149.5487588"/>
 <node id="10201184158" visible="true" version="1" changeset="129113095" timestamp="2022-11-19T08:05:09Z" user="Osaka78" uid="9300097" lat="-33.4480237" lon="149.5487870"/>
 <node id="10201184159" visible="true" version="1" changeset="129113095" timestamp="2022-11-19T08:05:09Z" user="Osaka78" uid="9300097" lat="-33.4480015" lon="149.5488212"/>
 <node id="10201184160" visible="true" version="1" changeset="129113095" timestamp="2022-11-19T08:05:09Z" user="Osaka78" uid="9300097" lat="-33.4479804" lon="149.5488634"/>
 <node id="10201184161" visible="true" version="1" changeset="129113095" timestamp="2022-11-19T08:05:09Z" user="Osaka78" uid="9300097" lat="-33.4479632" lon="149.5489065"/>
 <node id="10201184162" visible="true" version="1" changeset="129113095" timestamp="2022-11-19T08:05:09Z" user="Osaka78" uid="9300097" lat="-33.4479378" lon="149.5489874"/>
 <node id="10201184163" visible="true" version="1" changeset="129113095" timestamp="2022-11-19T08:05:09Z" user="Osaka78" uid="9300097" lat="-33.4480812" lon="149.5487320"/>
 <node id="10201184164" visible="true" version="1" changeset="129113095" timestamp="2022-11-19T08:05:09Z" user="Osaka78" uid="9300097" lat="-33.4481239" lon="149.5487083"/>
 <node id="10201184165" visible="true" version="1" changeset="129113095" timestamp="2022-11-19T08:05:09Z" user="Osaka78" uid="9300097" lat="-33.4481504" lon="149.5486980"/>
 <node id="10201184166" visible="true" version="1" changeset="129113095" timestamp="2022-11-19T08:05:09Z" user="Osaka78" uid="9300097" lat="-33.4481824" lon="149.5486898"/>
 <node id="10201184167" visible="true" version="1" changeset="129113095" timestamp="2022-11-19T08:05:09Z" user="Osaka78" uid="9300097" lat="-33.4482136" lon="149.5486852"/>
 <node id="10201184168" visible="true" version="1" changeset="129113095" timestamp="2022-11-19T08:05:09Z" user="Osaka78" uid="9300097" lat="-33.4482298" lon="149.5486844"/>
 <node id="10201184169" visible="true" version="1" changeset="129113095" timestamp="2022-11-19T08:05:09Z" user="Osaka78" uid="9300097" lat="-33.4482615" lon="149.5486856"/>
 <node id="10201184170" visible="true" version="1" changeset="129113095" timestamp="2022-11-19T08:05:09Z" user="Osaka78" uid="9300097" lat="-33.4483108" lon="149.5486958"/>
 <node id="10201184171" visible="true" version="1" changeset="129113095" timestamp="2022-11-19T08:05:09Z" user="Osaka78" uid="9300097" lat="-33.4483398" lon="149.5487071"/>
 <node id="10201184172" visible="true" version="1" changeset="129113095" timestamp="2022-11-19T08:05:09Z" user="Osaka78" uid="9300097" lat="-33.4483641" lon="149.5487200"/>
 <node id="10201184173" visible="true" version="1" changeset="129113095" timestamp="2022-11-19T08:05:09Z" user="Osaka78" uid="9300097" lat="-33.4483918" lon="149.5487385"/>
 <node id="10201184174" visible="true" version="1" changeset="129113095" timestamp="2022-11-19T08:05:09Z" user="Osaka78" uid="9300097" lat="-33.4484174" lon="149.5487595"/>
 <node id="10201184181" visible="true" version="1" changeset="129113095" timestamp="2022-11-19T08:05:09Z" user="Osaka78" uid="9300097" lat="-33.4489564" lon="149.5493144"/>
 <node id="10201184182" visible="true" version="1" changeset="129113095" timestamp="2022-11-19T08:05:09Z" user="Osaka78" uid="9300097" lat="-33.4490100" lon="149.5493597"/>
 <node id="10201184183" visible="true" version="1" changeset="129113095" timestamp="2022-11-19T08:05:09Z" user="Osaka78" uid="9300097" lat="-33.4490823" lon="149.5494084"/>
 <node id="10201184184" visible="true" version="1" changeset="129113095" timestamp="2022-11-19T08:05:09Z" user="Osaka78" uid="9300097" lat="-33.4491480" lon="149.5494433"/>
 <node id="10201184185" visible="true" version="1" changeset="129113095" timestamp="2022-11-19T08:05:09Z" user="Osaka78" uid="9300097" lat="-33.4492065" lon="149.5494678"/>
 <node id="10201184186" visible="true" version="1" changeset="129113095" timestamp="2022-11-19T08:05:09Z" user="Osaka78" uid="9300097" lat="-33.4492598" lon="149.5494854"/>
 <node id="10201184187" visible="true" version="1" changeset="129113095" timestamp="2022-11-19T08:05:09Z" user="Osaka78" uid="9300097" lat="-33.4493122" lon="149.5494988"/>
 <node id="10201184188" visible="true" version="1" changeset="129113095" timestamp="2022-11-19T08:05:09Z" user="Osaka78" uid="9300097" lat="-33.4493621" lon="149.5495080"/>
 <node id="10201184189" visible="true" version="1" changeset="129113095" timestamp="2022-11-19T08:05:09Z" user="Osaka78" uid="9300097" lat="-33.4493962" lon="149.5495110"/>
 <node id="10201184190" visible="true" version="1" changeset="129113095" timestamp="2022-11-19T08:05:09Z" user="Osaka78" uid="9300097" lat="-33.4494279" lon="149.5495123"/>
 <node id="10201184191" visible="true" version="1" changeset="129113095" timestamp="2022-11-19T08:05:09Z" user="Osaka78" uid="9300097" lat="-33.4500526" lon="149.5494234"/>
 <node id="10201184192" visible="true" version="1" changeset="129113095" timestamp="2022-11-19T08:05:09Z" user="Osaka78" uid="9300097" lat="-33.4499024" lon="149.5494545"/>
 <node id="10201184193" visible="true" version="1" changeset="129113095" timestamp="2022-11-19T08:05:09Z" user="Osaka78" uid="9300097" lat="-33.4505259" lon="149.5493040"/>
 <node id="10201184194" visible="true" version="1" changeset="129113095" timestamp="2022-11-19T08:05:09Z" user="Osaka78" uid="9300097" lat="-33.4505617" lon="149.5492905"/>
 <node id="10201184195" visible="true" version="1" changeset="129113095" timestamp="2022-11-19T08:05:09Z" user="Osaka78" uid="9300097" lat="-33.4505985" lon="149.5492744"/>
 <node id="10201184196" visible="true" version="1" changeset="129113095" timestamp="2022-11-19T08:05:09Z" user="Osaka78" uid="9300097" lat="-33.4506395" lon="149.5492540"/>
 <node id="10201184197" visible="true" version="1" changeset="129113095" timestamp="2022-11-19T08:05:09Z" user="Osaka78" uid="9300097" lat="-33.4506706" lon="149.5492350"/>
 <node id="10201184198" visible="true" version="1" changeset="129113095" timestamp="2022-11-19T08:05:09Z" user="Osaka78" uid="9300097" lat="-33.4507217" lon="149.5491974"/>
 <node id="10201184199" visible="true" version="1" changeset="129113095" timestamp="2022-11-19T08:05:09Z" user="Osaka78" uid="9300097" lat="-33.4507669" lon="149.5491573"/>
 <node id="10201184200" visible="true" version="1" changeset="129113095" timestamp="2022-11-19T08:05:09Z" user="Osaka78" uid="9300097" lat="-33.4507992" lon="149.5491239"/>
 <node id="10201184201" visible="true" version="1" changeset="129113095" timestamp="2022-11-19T08:05:09Z" user="Osaka78" uid="9300097" lat="-33.4508279" lon="149.5490912"/>
 <node id="10201184202" visible="true" version="1" changeset="129113095" timestamp="2022-11-19T08:05:09Z" user="Osaka78" uid="9300097" lat="-33.4508646" lon="149.5490413"/>
 <node id="10201184203" visible="true" version="1" changeset="129113095" timestamp="2022-11-19T08:05:09Z" user="Osaka78" uid="9300097" lat="-33.4508935" lon="149.5489956"/>
 <node id="10201184204" visible="true" version="1" changeset="129113095" timestamp="2022-11-19T08:05:09Z" user="Osaka78" uid="9300097" lat="-33.4509549" lon="149.5488752"/>
 <node id="10201184205" visible="true" version="1" changeset="129113095" timestamp="2022-11-19T08:05:09Z" user="Osaka78" uid="9300097" lat="-33.4510142" lon="149.5487268"/>
 <node id="10201184206" visible="true" version="1" changeset="129113095" timestamp="2022-11-19T08:05:09Z" user="Osaka78" uid="9300097" lat="-33.4511237" lon="149.5484432"/>
 <node id="10201184207" visible="true" version="1" changeset="129113095" timestamp="2022-11-19T08:05:09Z" user="Osaka78" uid="9300097" lat="-33.4511617" lon="149.5483573"/>
 <node id="10201184208" visible="true" version="1" changeset="129113095" timestamp="2022-11-19T08:05:09Z" user="Osaka78" uid="9300097" lat="-33.4511891" lon="149.5483039"/>
 <node id="10201184209" visible="true" version="1" changeset="129113095" timestamp="2022-11-19T08:05:09Z" user="Osaka78" uid="9300097" lat="-33.4512536" lon="149.5481978"/>
 <node id="10201184210" visible="true" version="1" changeset="129113095" timestamp="2022-11-19T08:05:09Z" user="Osaka78" uid="9300097" lat="-33.4513126" lon="149.5481143"/>
 <node id="10201184211" visible="true" version="1" changeset="129113095" timestamp="2022-11-19T08:05:09Z" user="Osaka78" uid="9300097" lat="-33.4513693" lon="149.5480405"/>
 <node id="10201184212" visible="true" version="1" changeset="129113095" timestamp="2022-11-19T08:05:09Z" user="Osaka78" uid="9300097" lat="-33.4522599" lon="149.5471052"/>
 <node id="10201184213" visible="true" version="1" changeset="129113095" timestamp="2022-11-19T08:05:09Z" user="Osaka78" uid="9300097" lat="-33.4530880" lon="149.5467705"/>
 <node id="10201184214" visible="true" version="1" changeset="129113095" timestamp="2022-11-19T08:05:09Z" user="Osaka78" uid="9300097" lat="-33.4531305" lon="149.5467650"/>
 <node id="10201184215" visible="true" version="1" changeset="129113095" timestamp="2022-11-19T08:05:09Z" user="Osaka78" uid="9300097" lat="-33.4531865" lon="149.5467603"/>
 <node id="10201184216" visible="true" version="1" changeset="129113095" timestamp="2022-11-19T08:05:09Z" user="Osaka78" uid="9300097" lat="-33.4532752" lon="149.5467600"/>
 <node id="10201193117" visible="true" version="1" changeset="129113095" timestamp="2022-11-19T08:05:09Z" user="Osaka78" uid="9300097" lat="-33.4533174" lon="149.5467638"/>
 <node id="10201193118" visible="true" version="1" changeset="129113095" timestamp="2022-11-19T08:05:09Z" user="Osaka78" uid="9300097" lat="-33.4533833" lon="149.5467725"/>
 <node id="10201193119" visible="true" version="1" changeset="129113095" timestamp="2022-11-19T08:05:09Z" user="Osaka78" uid="9300097" lat="-33.4534712" lon="149.5467935"/>
 <node id="10201193120" visible="true" version="1" changeset="129113095" timestamp="2022-11-19T08:05:09Z" user="Osaka78" uid="9300097" lat="-33.4535675" lon="149.5468246"/>
 <node id="10201193121" visible="true" version="1" changeset="129113095" timestamp="2022-11-19T08:05:09Z" user="Osaka78" uid="9300097" lat="-33.4536586" lon="149.5468633"/>
 <node id="10201193122" visible="true" version="1" changeset="129113095" timestamp="2022-11-19T08:05:09Z" user="Osaka78" uid="9300097" lat="-33.4537568" lon="149.5469182"/>
 <node id="10201193123" visible="true" version="1" changeset="129113095" timestamp="2022-11-19T08:05:09Z" user="Osaka78" uid="9300097" lat="-33.4538132" lon="149.5469547"/>
 <node id="10201193124" visible="true" version="1" changeset="129113095" timestamp="2022-11-19T08:05:09Z" user="Osaka78" uid="9300097" lat="-33.4538753" lon="149.5469984"/>
 <node id="10201193125" visible="true" version="1" changeset="129113095" timestamp="2022-11-19T08:05:09Z" user="Osaka78" uid="9300097" lat="-33.4552442" lon="149.5480409"/>
 <node id="10201193126" visible="true" version="1" changeset="129113095" timestamp="2022-11-19T08:05:09Z" user="Osaka78" uid="9300097" lat="-33.4552965" lon="149.5480957"/>
 <node id="10201193127" visible="true" version="1" changeset="129113095" timestamp="2022-11-19T08:05:09Z" user="Osaka78" uid="9300097" lat="-33.4553693" lon="149.5481788"/>
 <node id="10201193128" visible="true" version="1" changeset="129113095" timestamp="2022-11-19T08:05:09Z" user="Osaka78" uid="9300097" lat="-33.4554761" lon="149.5483573"/>
 <node id="10201193129" visible="true" version="1" changeset="129113095" timestamp="2022-11-19T08:05:09Z" user="Osaka78" uid="9300097" lat="-33.4555414" lon="149.5484890"/>
 <node id="10201193130" visible="true" version="1" changeset="129113095" timestamp="2022-11-19T08:05:09Z" user="Osaka78" uid="9300097" lat="-33.4555799" lon="149.5485749"/>
 <node id="10201193131" visible="true" version="1" changeset="129113095" timestamp="2022-11-19T08:05:09Z" user="Osaka78" uid="9300097" lat="-33.4556000" lon="149.5486254"/>
 <node id="10201193132" visible="true" version="1" changeset="129113095" timestamp="2022-11-19T08:05:09Z" user="Osaka78" uid="9300097" lat="-33.4556198" lon="149.5486806"/>
 <node id="10201193133" visible="true" version="1" changeset="129113095" timestamp="2022-11-19T08:05:09Z" user="Osaka78" uid="9300097" lat="-33.4556368" lon="149.5487400"/>
 <node id="10201193134" visible="true" version="1" changeset="129113095" timestamp="2022-11-19T08:05:09Z" user="Osaka78" uid="9300097" lat="-33.4556521" lon="149.5488158"/>
 <node id="10201193135" visible="true" version="1" changeset="129113095" timestamp="2022-11-19T08:05:09Z" user="Osaka78" uid="9300097" lat="-33.4556621" lon="149.5488994"/>
 <node id="10201193136" visible="true" version="1" changeset="129113095" timestamp="2022-11-19T08:05:09Z" user="Osaka78" uid="9300097" lat="-33.4556692" lon="149.5489887"/>
 <node id="10201536344" visible="true" version="1" changeset="129116993" timestamp="2022-11-19T10:05:44Z" user="Osaka78" uid="9300097" lat="-33.4557035" lon="149.5510246"/>
 <node id="10201536345" visible="true" version="1" changeset="129116993" timestamp="2022-11-19T10:05:44Z" user="Osaka78" uid="9300097" lat="-33.4557097" lon="149.5512693"/>
 <node id="10201536346" visible="true" version="1" changeset="129116993" timestamp="2022-11-19T10:05:44Z" user="Osaka78" uid="9300097" lat="-33.4557182" lon="149.5515430"/>
 <node id="10201536347" visible="true" version="1" changeset="129116993" timestamp="2022-11-19T10:05:44Z" user="Osaka78" uid="9300097" lat="-33.4557240" lon="149.5516086"/>
 <node id="10201536348" visible="true" version="1" changeset="129116993" timestamp="2022-11-19T10:05:44Z" user="Osaka78" uid="9300097" lat="-33.4557301" lon="149.5516549"/>
 <node id="10201536349" visible="true" version="1" changeset="129116993" timestamp="2022-11-19T10:05:44Z" user="Osaka78" uid="9300097" lat="-33.4557404" lon="149.5517139"/>
 <node id="10201536350" visible="true" version="1" changeset="129116993" timestamp="2022-11-19T10:05:44Z" user="Osaka78" uid="9300097" lat="-33.4557728" lon="149.5518271"/>
 <node id="10201536351" visible="true" version="1" changeset="129116993" timestamp="2022-11-19T10:05:44Z" user="Osaka78" uid="9300097" lat="-33.4557921" lon="149.5518761"/>
 <node id="10201536352" visible="true" version="1" changeset="129116993" timestamp="2022-11-19T10:05:44Z" user="Osaka78" uid="9300097" lat="-33.4558136" lon="149.5519244"/>
 <node id="10201536353" visible="true" version="1" changeset="129116993" timestamp="2022-11-19T10:05:44Z" user="Osaka78" uid="9300097" lat="-33.4558670" lon="149.5520331"/>
 <node id="10201536354" visible="true" version="1" changeset="129116993" timestamp="2022-11-19T10:05:44Z" user="Osaka78" uid="9300097" lat="-33.4559292" lon="149.5521521"/>
 <node id="10201536355" visible="true" version="1" changeset="129116993" timestamp="2022-11-19T10:05:44Z" user="Osaka78" uid="9300097" lat="-33.4559491" lon="149.5521925"/>
 <node id="10201536356" visible="true" version="1" changeset="129116993" timestamp="2022-11-19T10:05:44Z" user="Osaka78" uid="9300097" lat="-33.4559659" lon="149.5522286"/>
 <node id="10201536357" visible="true" version="1" changeset="129116993" timestamp="2022-11-19T10:05:44Z" user="Osaka78" uid="9300097" lat="-33.4559785" lon="149.5522597"/>
 <node id="10201536358" visible="true" version="1" changeset="129116993" timestamp="2022-11-19T10:05:44Z" user="Osaka78" uid="9300097" lat="-33.4559907" lon="149.5522914"/>
 <node id="10201536359" visible="true" version="1" changeset="129116993" timestamp="2022-11-19T10:05:44Z" user="Osaka78" uid="9300097" lat="-33.4560024" lon="149.5523293"/>
 <node id="10201536360" visible="true" version="1" changeset="129116993" timestamp="2022-11-19T10:05:44Z" user="Osaka78" uid="9300097" lat="-33.4560105" lon="149.5523610"/>
 <node id="10201536361" visible="true" version="1" changeset="129116993" timestamp="2022-11-19T10:05:44Z" user="Osaka78" uid="9300097" lat="-33.4560218" lon="149.5524217"/>
 <node id="10201536362" visible="true" version="1" changeset="129116993" timestamp="2022-11-19T10:05:44Z" user="Osaka78" uid="9300097" lat="-33.4560277" lon="149.5524690"/>
 <node id="10201536363" visible="true" version="1" changeset="129116993" timestamp="2022-11-19T10:05:44Z" user="Osaka78" uid="9300097" lat="-33.4560310" lon="149.5525233"/>
 <node id="10201536364" visible="true" version="1" changeset="129116993" timestamp="2022-11-19T10:05:44Z" user="Osaka78" uid="9300097" lat="-33.4560306" lon="149.5526032"/>
 <node id="10201536365" visible="true" version="1" changeset="129116993" timestamp="2022-11-19T10:05:44Z" user="Osaka78" uid="9300097" lat="-33.4560232" lon="149.5526806"/>
 <node id="10201536366" visible="true" version="1" changeset="129116993" timestamp="2022-11-19T10:05:44Z" user="Osaka78" uid="9300097" lat="-33.4560077" lon="149.5527814"/>
 <node id="10201536367" visible="true" version="1" changeset="129116993" timestamp="2022-11-19T10:05:44Z" user="Osaka78" uid="9300097" lat="-33.4559934" lon="149.5528724"/>
 <node id="10201536368" visible="true" version="1" changeset="129116993" timestamp="2022-11-19T10:05:44Z" user="Osaka78" uid="9300097" lat="-33.4559831" lon="149.5529869"/>
 <node id="10201536369" visible="true" version="1" changeset="129116993" timestamp="2022-11-19T10:05:44Z" user="Osaka78" uid="9300097" lat="-33.4559930" lon="149.5530813"/>
 <node id="10201536370" visible="true" version="1" changeset="129116993" timestamp="2022-11-19T10:05:44Z" user="Osaka78" uid="9300097" lat="-33.4560086" lon="149.5531316"/>
 <node id="10201536371" visible="true" version="1" changeset="129116993" timestamp="2022-11-19T10:05:44Z" user="Osaka78" uid="9300097" lat="-33.4560339" lon="149.5531914"/>
 <node id="10201536372" visible="true" version="1" changeset="129116993" timestamp="2022-11-19T10:05:44Z" user="Osaka78" uid="9300097" lat="-33.4560634" lon="149.5532444"/>
 <node id="10201536373" visible="true" version="1" changeset="129116993" timestamp="2022-11-19T10:05:44Z" user="Osaka78" uid="9300097" lat="-33.4560945" lon="149.5532909"/>
 <node id="10201536374" visible="true" version="1" changeset="129116993" timestamp="2022-11-19T10:05:44Z" user="Osaka78" uid="9300097" lat="-33.4561335" lon="149.5533434"/>
 <node id="10201536375" visible="true" version="1" changeset="129116993" timestamp="2022-11-19T10:05:44Z" user="Osaka78" uid="9300097" lat="-33.4561716" lon="149.5533891"/>
 <node id="10201536376" visible="true" version="1" changeset="129116993" timestamp="2022-11-19T10:05:44Z" user="Osaka78" uid="9300097" lat="-33.4562097" lon="149.5534284"/>
 <node id="10201536377" visible="true" version="1" changeset="129116993" timestamp="2022-11-19T10:05:44Z" user="Osaka78" uid="9300097" lat="-33.4562547" lon="149.5534617"/>
 <node id="10201536378" visible="true" version="1" changeset="129116993" timestamp="2022-11-19T10:05:44Z" user="Osaka78" uid="9300097" lat="-33.4562980" lon="149.5534851"/>
 <node id="10201536379" visible="true" version="1" changeset="129116993" timestamp="2022-11-19T10:05:44Z" user="Osaka78" uid="9300097" lat="-33.4563546" lon="149.5535086"/>
 <node id="10201536380" visible="true" version="1" changeset="129116993" timestamp="2022-11-19T10:05:44Z" user="Osaka78" uid="9300097" lat="-33.4564028" lon="149.5535287"/>
 <node id="10201536381" visible="true" version="1" changeset="129116993" timestamp="2022-11-19T10:05:44Z" user="Osaka78" uid="9300097" lat="-33.4564356" lon="149.5535467"/>
 <node id="10201536382" visible="true" version="1" changeset="129116993" timestamp="2022-11-19T10:05:44Z" user="Osaka78" uid="9300097" lat="-33.4564677" lon="149.5535759"/>
 <node id="10201536383" visible="true" version="1" changeset="129116993" timestamp="2022-11-19T10:05:44Z" user="Osaka78" uid="9300097" lat="-33.4564518" lon="149.5535602"/>
 <node id="10201536384" visible="true" version="1" changeset="129116993" timestamp="2022-11-19T10:05:44Z" user="Osaka78" uid="9300097" lat="-33.4564222" lon="149.5535382"/>
 <node id="10201536385" visible="true" version="1" changeset="129116993" timestamp="2022-11-19T10:05:44Z" user="Osaka78" uid="9300097" lat="-33.4564896" lon="149.5536085"/>
 <node id="10201536386" visible="true" version="1" changeset="129116993" timestamp="2022-11-19T10:05:44Z" user="Osaka78" uid="9300097" lat="-33.4564799" lon="149.5535921"/>
 <node id="10201536387" visible="true" version="1" changeset="129116993" timestamp="2022-11-19T10:05:44Z" user="Osaka78" uid="9300097" lat="-33.4565057" lon="149.5536437"/>
 <node id="10201536388" visible="true" version="1" changeset="129116993" timestamp="2022-11-19T10:05:44Z" user="Osaka78" uid="9300097" lat="-33.4565246" lon="149.5537124"/>
 <node id="10201536389" visible="true" version="1" changeset="129116993" timestamp="2022-11-19T10:05:44Z" user="Osaka78" uid="9300097" lat="-33.4565303" lon="149.5537626"/>
 <node id="10201536390" visible="true" version="1" changeset="129116993" timestamp="2022-11-19T10:05:44Z" user="Osaka78" uid="9300097" lat="-33.4565318" lon="149.5538427"/>
 <node id="10201536391" visible="true" version="1" changeset="129116993" timestamp="2022-11-19T10:05:44Z" user="Osaka78" uid="9300097" lat="-33.4565291" lon="149.5539528"/>
 <node id="10201536392" visible="true" version="1" changeset="129116993" timestamp="2022-11-19T10:05:44Z" user="Osaka78" uid="9300097" lat="-33.4565294" lon="149.5540276"/>
 <node id="10201536393" visible="true" version="1" changeset="129116993" timestamp="2022-11-19T10:05:44Z" user="Osaka78" uid="9300097" lat="-33.4565346" lon="149.5540793"/>
 <node id="10201536394" visible="true" version="1" changeset="129116993" timestamp="2022-11-19T10:05:44Z" user="Osaka78" uid="9300097" lat="-33.4565470" lon="149.5541387"/>
 <node id="10201536395" visible="true" version="1" changeset="129116993" timestamp="2022-11-19T10:05:44Z" user="Osaka78" uid="9300097" lat="-33.4565590" lon="149.5541764"/>
 <node id="10201536396" visible="true" version="1" changeset="129116993" timestamp="2022-11-19T10:05:44Z" user="Osaka78" uid="9300097" lat="-33.4565743" lon="149.5542123"/>
 <node id="10201536397" visible="true" version="1" changeset="129116993" timestamp="2022-11-19T10:05:44Z" user="Osaka78" uid="9300097" lat="-33.4566129" lon="149.5542795"/>
 <node id="10201536398" visible="true" version="1" changeset="129116993" timestamp="2022-11-19T10:05:44Z" user="Osaka78" uid="9300097" lat="-33.4566718" lon="149.5543627"/>
 <node id="10201536399" visible="true" version="1" changeset="129116993" timestamp="2022-11-19T10:05:44Z" user="Osaka78" uid="9300097" lat="-33.4570905" lon="149.5548965"/>
 <node id="10201536400" visible="true" version="1" changeset="129116993" timestamp="2022-11-19T10:05:44Z" user="Osaka78" uid="9300097" lat="-33.4571780" lon="149.5550155"/>
 <node id="10201536401" visible="true" version="1" changeset="129116993" timestamp="2022-11-19T10:05:44Z" user="Osaka78" uid="9300097" lat="-33.4572126" lon="149.5550735"/>
 <node id="10201536402" visible="true" version="1" changeset="129116993" timestamp="2022-11-19T10:05:44Z" user="Osaka78" uid="9300097" lat="-33.4572452" lon="149.5551390"/>
 <node id="10201536403" visible="true" version="1" changeset="129116993" timestamp="2022-11-19T10:05:44Z" user="Osaka78" uid="9300097" lat="-33.4572830" lon="149.5552293"/>
 <node id="10201536404" visible="true" version="1" changeset="129116993" timestamp="2022-11-19T10:05:44Z" user="Osaka78" uid="9300097" lat="-33.4573238" lon="149.5553449"/>
 <node id="10201536405" visible="true" version="1" changeset="129116993" timestamp="2022-11-19T10:05:44Z" user="Osaka78" uid="9300097" lat="-33.4573599" lon="149.5554523"/>
 <node id="10201536406" visible="true" version="1" changeset="129116993" timestamp="2022-11-19T10:05:44Z" user="Osaka78" uid="9300097" lat="-33.4574121" lon="149.5556055"/>
 <node id="10201536407" visible="true" version="1" changeset="129116993" timestamp="2022-11-19T10:05:44Z" user="Osaka78" uid="9300097" lat="-33.4574422" lon="149.5556823"/>
 <node id="10201536408" visible="true" version="1" changeset="129116993" timestamp="2022-11-19T10:05:44Z" user="Osaka78" uid="9300097" lat="-33.4574707" lon="149.5557443"/>
 <node id="10201536409" visible="true" version="1" changeset="129116993" timestamp="2022-11-19T10:05:44Z" user="Osaka78" uid="9300097" lat="-33.4574997" lon="149.5557944"/>
 <node id="10201536410" visible="true" version="1" changeset="129116993" timestamp="2022-11-19T10:05:44Z" user="Osaka78" uid="9300097" lat="-33.4575375" lon="149.5558469"/>
 <node id="10201536411" visible="true" version="1" changeset="129116993" timestamp="2022-11-19T10:05:44Z" user="Osaka78" uid="9300097" lat="-33.4575950" lon="149.5559109"/>
 <node id="10201536412" visible="true" version="1" changeset="129116993" timestamp="2022-11-19T10:05:44Z" user="Osaka78" uid="9300097" lat="-33.4576712" lon="149.5559781"/>
 <node id="10201536413" visible="true" version="1" changeset="129116993" timestamp="2022-11-19T10:05:44Z" user="Osaka78" uid="9300097" lat="-33.4577521" lon="149.5560372"/>
 <node id="10201536414" visible="true" version="1" changeset="129116993" timestamp="2022-11-19T10:05:44Z" user="Osaka78" uid="9300097" lat="-33.4576347" lon="149.5559480"/>
 <node id="10201536415" visible="true" version="1" changeset="129116993" timestamp="2022-11-19T10:05:44Z" user="Osaka78" uid="9300097" lat="-33.4577177" lon="149.5560126"/>
 <node id="10201536416" visible="true" version="1" changeset="129116993" timestamp="2022-11-19T10:05:44Z" user="Osaka78" uid="9300097" lat="-33.4578256" lon="149.5560869"/>
 <node id="10201537717" visible="true" version="1" changeset="129116993" timestamp="2022-11-19T10:05:44Z" user="Osaka78" uid="9300097" lat="-33.4580593" lon="149.5562237"/>
 <node id="10201537718" visible="true" version="1" changeset="129116993" timestamp="2022-11-19T10:05:44Z" user="Osaka78" uid="9300097" lat="-33.4581891" lon="149.5562926"/>
 <node id="10201537719" visible="true" version="1" changeset="129116993" timestamp="2022-11-19T10:05:44Z" user="Osaka78" uid="9300097" lat="-33.4582366" lon="149.5563203"/>
 <node id="10201537720" visible="true" version="1" changeset="129116993" timestamp="2022-11-19T10:05:44Z" user="Osaka78" uid="9300097" lat="-33.4582781" lon="149.5563489"/>
 <node id="10201537721" visible="true" version="1" changeset="129116993" timestamp="2022-11-19T10:05:44Z" user="Osaka78" uid="9300097" lat="-33.4583173" lon="149.5563842"/>
 <node id="10201537722" visible="true" version="1" changeset="129116993" timestamp="2022-11-19T10:05:44Z" user="Osaka78" uid="9300097" lat="-33.4583503" lon="149.5564243"/>
 <node id="10201537723" visible="true" version="1" changeset="129116993" timestamp="2022-11-19T10:05:44Z" user="Osaka78" uid="9300097" lat="-33.4583690" lon="149.5564532"/>
 <node id="10201537724" visible="true" version="1" changeset="129116993" timestamp="2022-11-19T10:05:44Z" user="Osaka78" uid="9300097" lat="-33.4583948" lon="149.5565068"/>
 <node id="10201537725" visible="true" version="1" changeset="129116993" timestamp="2022-11-19T10:05:44Z" user="Osaka78" uid="9300097" lat="-33.4584098" lon="149.5565543"/>
 <node id="10201537726" visible="true" version="1" changeset="129116993" timestamp="2022-11-19T10:05:44Z" user="Osaka78" uid="9300097" lat="-33.4584206" lon="149.5566130"/>
 <node id="10201537727" visible="true" version="1" changeset="129116993" timestamp="2022-11-19T10:05:44Z" user="Osaka78" uid="9300097" lat="-33.4584222" lon="149.5566547"/>
 <node id="10201537728" visible="true" version="1" changeset="129116993" timestamp="2022-11-19T10:05:44Z" user="Osaka78" uid="9300097" lat="-33.4584200" lon="149.5566911"/>
 <node id="10201537729" visible="true" version="1" changeset="129116993" timestamp="2022-11-19T10:05:44Z" user="Osaka78" uid="9300097" lat="-33.4584024" lon="149.5567697"/>
 <node id="10201537730" visible="true" version="1" changeset="129116993" timestamp="2022-11-19T10:05:44Z" user="Osaka78" uid="9300097" lat="-33.4583847" lon="149.5568137"/>
 <node id="10201537731" visible="true" version="1" changeset="129116993" timestamp="2022-11-19T10:05:44Z" user="Osaka78" uid="9300097" lat="-33.4583659" lon="149.5568474"/>
 <node id="10201537732" visible="true" version="1" changeset="129116993" timestamp="2022-11-19T10:05:44Z" user="Osaka78" uid="9300097" lat="-33.4583313" lon="149.5568926"/>
 <node id="10201537733" visible="true" version="1" changeset="129116993" timestamp="2022-11-19T10:05:44Z" user="Osaka78" uid="9300097" lat="-33.4582858" lon="149.5569377"/>
 <node id="10201537734" visible="true" version="1" changeset="129116993" timestamp="2022-11-19T10:05:44Z" user="Osaka78" uid="9300097" lat="-33.4582304" lon="149.5569880"/>
 <node id="10201537735" visible="true" version="1" changeset="129116993" timestamp="2022-11-19T10:05:44Z" user="Osaka78" uid="9300097" lat="-33.4570885" lon="149.5578337"/>
 <node id="10201537736" visible="true" version="1" changeset="129116993" timestamp="2022-11-19T10:05:44Z" user="Osaka78" uid="9300097" lat="-33.4567115" lon="149.5580267"/>
 <node id="10201537737" visible="true" version="1" changeset="129116993" timestamp="2022-11-19T10:05:44Z" user="Osaka78" uid="9300097" lat="-33.4567857" lon="149.5580012"/>
 <node id="10201537738" visible="true" version="1" changeset="129116993" timestamp="2022-11-19T10:05:44Z" user="Osaka78" uid="9300097" lat="-33.4569690" lon="149.5579102"/>
 <node id="10201537739" visible="true" version="1" changeset="129116993" timestamp="2022-11-19T10:05:44Z" user="Osaka78" uid="9300097" lat="-33.4568348" lon="149.5579804"/>
 <node id="10201537750" visible="true" version="1" changeset="129116993" timestamp="2022-11-19T10:05:44Z" user="Osaka78" uid="9300097" lat="-33.4524905" lon="149.5588335"/>
 <node id="10201537760" visible="true" version="1" changeset="129116993" timestamp="2022-11-19T10:05:44Z" user="Osaka78" uid="9300097" lat="-33.4447848" lon="149.5610479"/>
 <node id="10201537761" visible="true" version="1" changeset="129116993" timestamp="2022-11-19T10:05:44Z" user="Osaka78" uid="9300097" lat="-33.4447009" lon="149.5610732"/>
 <node id="10201537762" visible="true" version="1" changeset="129116993" timestamp="2022-11-19T10:05:44Z" user="Osaka78" uid="9300097" lat="-33.4446639" lon="149.5610759"/>
 <node id="10201537763" visible="true" version="1" changeset="129116993" timestamp="2022-11-19T10:05:44Z" user="Osaka78" uid="9300097" lat="-33.4446194" lon="149.5610694"/>
 <node id="10201537764" visible="true" version="1" changeset="129116993" timestamp="2022-11-19T10:05:44Z" user="Osaka78" uid="9300097" lat="-33.4445674" lon="149.5610478"/>
 <node id="10201537765" visible="true" version="1" changeset="129116993" timestamp="2022-11-19T10:05:44Z" user="Osaka78" uid="9300097" lat="-33.4445161" lon="149.5610094"/>
 <node id="10201537766" visible="true" version="1" changeset="129116993" timestamp="2022-11-19T10:05:44Z" user="Osaka78" uid="9300097" lat="-33.4444431" lon="149.5609338"/>
 <node id="10201537767" visible="true" version="1" changeset="129116993" timestamp="2022-11-19T10:05:44Z" user="Osaka78" uid="9300097" lat="-33.4442395" lon="149.5606948"/>
 <node id="10201537768" visible="true" version="1" changeset="129116993" timestamp="2022-11-19T10:05:44Z" user="Osaka78" uid="9300097" lat="-33.4441982" lon="149.5606527"/>
 <node id="10201537769" visible="true" version="1" changeset="129116993" timestamp="2022-11-19T10:05:44Z" user="Osaka78" uid="9300097" lat="-33.4441343" lon="149.5605980"/>
 <node id="10201537770" visible="true" version="1" changeset="129116993" timestamp="2022-11-19T10:05:44Z" user="Osaka78" uid="9300097" lat="-33.4440503" lon="149.5605439"/>
 <node id="10201537771" visible="true" version="1" changeset="129116993" timestamp="2022-11-19T10:05:44Z" user="Osaka78" uid="9300097" lat="-33.4439857" lon="149.5605076"/>
 <node id="10201537772" visible="true" version="1" changeset="129116993" timestamp="2022-11-19T10:05:44Z" user="Osaka78" uid="9300097" lat="-33.4438995" lon="149.5604683"/>
 <node id="10201537773" visible="true" version="1" changeset="129116993" timestamp="2022-11-19T10:05:44Z" user="Osaka78" uid="9300097" lat="-33.4438220" lon="149.5604447"/>
 <node id="10201537774" visible="true" version="1" changeset="129116993" timestamp="2022-11-19T10:05:44Z" user="Osaka78" uid="9300097" lat="-33.4437690" lon="149.5604345"/>
 <node id="10201537775" visible="true" version="1" changeset="129116993" timestamp="2022-11-19T10:05:44Z" user="Osaka78" uid="9300097" lat="-33.4437007" lon="149.5604288"/>
 <node id="10201537776" visible="true" version="1" changeset="129116993" timestamp="2022-11-19T10:05:44Z" user="Osaka78" uid="9300097" lat="-33.4435947" lon="149.5604340"/>
 <node id="10201537777" visible="true" version="1" changeset="129116993" timestamp="2022-11-19T10:05:44Z" user="Osaka78" uid="9300097" lat="-33.4435355" lon="149.5604430"/>
 <node id="10201537778" visible="true" version="1" changeset="129116993" timestamp="2022-11-19T10:05:44Z" user="Osaka78" uid="9300097" lat="-33.4433980" lon="149.5604658"/>
 <node id="10201537779" visible="true" version="1" changeset="129116993" timestamp="2022-11-19T10:05:44Z" user="Osaka78" uid="9300097" lat="-33.4427190" lon="149.5605865"/>
 <node id="10201606747" visible="true" version="1" changeset="129117288" timestamp="2022-11-19T10:16:57Z" user="Osaka78" uid="9300097" lat="-33.4398733" lon="149.5611118"/>
 <node id="10201606748" visible="true" version="1" changeset="129117288" timestamp="2022-11-19T10:16:57Z" user="Osaka78" uid="9300097" lat="-33.4398366" lon="149.5611108"/>
 <node id="10201606749" visible="true" version="1" changeset="129117288" timestamp="2022-11-19T10:16:57Z" user="Osaka78" uid="9300097" lat="-33.4398170" lon="149.5611056"/>
 <node id="10201606750" visible="true" version="1" changeset="129117288" timestamp="2022-11-19T10:16:57Z" user="Osaka78" uid="9300097" lat="-33.4397685" lon="149.5610837"/>
 <node id="10201606751" visible="true" version="1" changeset="129117288" timestamp="2022-11-19T10:16:57Z" user="Osaka78" uid="9300097" lat="-33.4397289" lon="149.5610486"/>
 <node id="10201606752" visible="true" version="1" changeset="129117288" timestamp="2022-11-19T10:16:57Z" user="Osaka78" uid="9300097" lat="-33.4396923" lon="149.5610016"/>
 <node id="10201606753" visible="true" version="1" changeset="129117288" timestamp="2022-11-19T10:16:57Z" user="Osaka78" uid="9300097" lat="-33.4396785" lon="149.5609788"/>
 <node id="10201606754" visible="true" version="1" changeset="129117288" timestamp="2022-11-19T10:16:57Z" user="Osaka78" uid="9300097" lat="-33.4396619" lon="149.5609477"/>
 <node id="10201606755" visible="true" version="1" changeset="129117288" timestamp="2022-11-19T10:16:57Z" user="Osaka78" uid="9300097" lat="-33.4396374" lon="149.5608738"/>
 <way id="30111085" visible="true" version="22" changeset="132698962" timestamp="2023-02-18T00:01:47Z" user="AntBurnett" uid="32394">
  <nd ref="3890232199"/>
  <nd ref="440697134"/>
  <nd ref="1453543345"/>
  <nd ref="1377585046"/>
  <nd ref="1453543368"/>
  <nd ref="1453543374"/>
  <nd ref="1453543382"/>
  <nd ref="1453543387"/>
  <nd ref="1453543389"/>
  <nd ref="3076312293"/>
  <nd ref="1453543392"/>
  <nd ref="1453543408"/>
  <nd ref="1453543410"/>
  <nd ref="1453543424"/>
  <nd ref="1453543432"/>
  <nd ref="1453543433"/>
  <nd ref="1453543451"/>
  <nd ref="662087297"/>
  <nd ref="1453543474"/>
  <nd ref="35122842"/>
  <tag k="alt_name" v="Mount Panorama Scenic Road"/>
  <tag k="highway" v="residential"/>
  <tag k="lane_markings" v="no"/>
  <tag k="maxspeed" v="60"/>
  <tag k="maxweight" v="5"/>
  <tag k="maxweight:bus" v="unrestricted"/>
  <tag k="name" v="Mountain Straight"/>
  <tag k="source" v="bing"/>
  <tag k="surface" v="asphalt"/>
 </way>
 <way id="30111102" visible="true" version="32" changeset="129112257" timestamp="2022-11-19T07:16:30Z" user="Osaka78" uid="9300097">
  <nd ref="35122842"/>
  <nd ref="10201152052"/>
  <nd ref="10201152053"/>
  <nd ref="10201152054"/>
  <nd ref="10201152055"/>
  <nd ref="10201152056"/>
  <nd ref="10201152057"/>
  <nd ref="10201152058"/>
  <nd ref="10201152059"/>
  <nd ref="4056397201"/>
  <nd ref="10201152060"/>
  <nd ref="10201152061"/>
  <nd ref="10201152062"/>
  <nd ref="10201152063"/>
  <nd ref="10201152064"/>
  <nd ref="10201152065"/>
  <nd ref="10201152067"/>
  <nd ref="4056397188"/>
  <nd ref="10201152066"/>
  <nd ref="10201152068"/>
  <nd ref="10201152069"/>
  <nd ref="10201152070"/>
  <nd ref="10201152071"/>
  <nd ref="10201152072"/>
  <nd ref="10201152073"/>
  <nd ref="10201152074"/>
  <nd ref="1453543482"/>
  <tag k="alt_name" v="Mount Panorama Scenic Road"/>
  <tag k="highway" v="residential"/>
  <tag k="maxspeed" v="60"/>
  <tag k="maxweight" v="5"/>
  <tag k="maxweight:bus" v="unrestricted"/>
  <tag k="name" v="Griffins Bend"/>
  <tag k="source" v="NSW LPI Imagery"/>
  <tag k="surface" v="asphalt"/>
 </way>
 <way id="30111107" visible="true" version="28" changeset="129116993" timestamp="2022-11-19T10:05:44Z" user="Osaka78" uid="9300097">
  <nd ref="35122869"/>
  <nd ref="1453543583"/>
  <nd ref="1453543575"/>
  <nd ref="10201537735"/>
  <nd ref="10201537738"/>
  <nd ref="440697137"/>
  <nd ref="10201537739"/>
  <nd ref="10201537737"/>
  <nd ref="10201537736"/>
  <nd ref="1453543552"/>
  <nd ref="662087886"/>
  <nd ref="1453543542"/>
  <nd ref="1453543539"/>
  <nd ref="1453543534"/>
  <nd ref="4056397149"/>
  <nd ref="1453543531"/>
  <nd ref="1453543529"/>
  <nd ref="1453543524"/>
  <nd ref="10201537750"/>
  <nd ref="1453543521"/>
  <nd ref="1453543508"/>
  <nd ref="1453543460"/>
  <nd ref="1453543446"/>
  <nd ref="35122872"/>
  <tag k="alt_name" v="Mount Panorama Scenic Road"/>
  <tag k="highway" v="residential"/>
  <tag k="maxspeed" v="60"/>
  <tag k="maxweight" v="5"/>
  <tag k="maxweight:bus" v="unrestricted"/>
  <tag k="name" v="Conrod Straight"/>
  <tag k="source" v="NSW LPI Imagery"/>
  <tag k="surface" v="asphalt"/>
 </way>
 <way id="37594848" visible="true" version="14" changeset="86840162" timestamp="2020-06-18T19:33:23Z" user="GinaroZ" uid="3432400">
  <nd ref="440697142"/>
  <nd ref="6499063210"/>
  <nd ref="6499063211"/>
  <nd ref="3890232206"/>
  <nd ref="3890232200"/>
  <nd ref="3890232198"/>
  <nd ref="3890232187"/>
  <nd ref="3890232186"/>
  <nd ref="3890232185"/>
  <nd ref="3890232205"/>
  <nd ref="3890232189"/>
  <nd ref="3890232193"/>
  <nd ref="3890232192"/>
  <nd ref="7399855112"/>
  <nd ref="3890232204"/>
  <nd ref="3890232212"/>
  <nd ref="3890232201"/>
  <nd ref="3890232202"/>
  <nd ref="7399855121"/>
  <nd ref="3890232196"/>
  <nd ref="3890232208"/>
  <nd ref="942921243"/>
  <tag k="access" v="private"/>
  <tag k="highway" v="service"/>
  <tag k="name" v="Pit Lane"/>
  <tag k="source" v="bing"/>
  <tag k="surface" v="asphalt"/>
 </way>
 <way id="306192500" visible="true" version="8" changeset="129113095" timestamp="2022-11-19T08:05:09Z" user="Osaka78" uid="9300097">
  <nd ref="1453543482"/>
  <nd ref="7858534797"/>
  <nd ref="1453543470"/>
  <nd ref="662087326"/>
  <nd ref="4056397252"/>
  <nd ref="662087361"/>
  <nd ref="6487201061"/>
  <nd ref="6487201062"/>
  <nd ref="10201184147"/>
  <nd ref="10201184148"/>
  <nd ref="10201184149"/>
  <nd ref="10201184150"/>
  <nd ref="10201184151"/>
  <nd ref="10201184152"/>
  <nd ref="10201184153"/>
  <nd ref="10201184154"/>
  <nd ref="10201184155"/>
  <nd ref="10201184156"/>
  <nd ref="6487201068"/>
  <nd ref="10201184162"/>
  <nd ref="10201184161"/>
  <nd ref="10201184160"/>
  <nd ref="10201184159"/>
  <nd ref="10201184158"/>
  <nd ref="10201184157"/>
  <nd ref="1453543458"/>
  <nd ref="10201184163"/>
  <nd ref="10201184164"/>
  <nd ref="10201184165"/>
  <nd ref="10201184166"/>
  <nd ref="10201184167"/>
  <nd ref="10201184168"/>
  <nd ref="10201184169"/>
  <nd ref="10201184170"/>
  <nd ref="10201184171"/>
  <nd ref="10201184172"/>
  <nd ref="10201184173"/>
  <nd ref="10201184174"/>
  <nd ref="6487271698"/>
  <nd ref="1453543484"/>
  <nd ref="1453543487"/>
  <tag k="alt_name" v="Mount Panorama Scenic Road"/>
  <tag k="highway" v="residential"/>
  <tag k="maxspeed" v="60"/>
  <tag k="maxweight" v="5"/>
  <tag k="maxweight:bus" v="unrestricted"/>
  <tag k="name" v="The Cutting"/>
  <tag k="source" v="NSW LPI Imagery"/>
  <tag k="surface" v="asphalt"/>
 </way>
 <way id="306192501" visible="true" version="8" changeset="129116993" timestamp="2022-11-19T10:05:44Z" user="Osaka78" uid="9300097">
  <nd ref="942921101"/>
  <nd ref="10201536346"/>
  <nd ref="10201536347"/>
  <nd ref="10201536348"/>
  <nd ref="10201536349"/>
  <nd ref="4056397199"/>
  <nd ref="10201536350"/>
  <nd ref="10201536351"/>
  <nd ref="10201536352"/>
  <nd ref="10201536353"/>
  <nd ref="10201536354"/>
  <nd ref="10201536355"/>
  <nd ref="10201536356"/>
  <nd ref="10201536357"/>
  <nd ref="10201536358"/>
  <nd ref="10201536359"/>
  <nd ref="10201536360"/>
  <nd ref="10201536361"/>
  <nd ref="10201536362"/>
  <nd ref="10201536363"/>
  <nd ref="10201536364"/>
  <nd ref="10201536365"/>
  <nd ref="10201536366"/>
  <nd ref="10201536367"/>
  <nd ref="10091505272"/>
  <nd ref="10201536368"/>
  <nd ref="4056397198"/>
  <nd ref="10201536369"/>
  <nd ref="10201536370"/>
  <nd ref="10201536371"/>
  <nd ref="10201536372"/>
  <nd ref="10201536373"/>
  <nd ref="10201536374"/>
  <nd ref="10201536375"/>
  <nd ref="10201536376"/>
  <nd ref="10201536377"/>
  <nd ref="10201536378"/>
  <nd ref="10201536379"/>
  <nd ref="10201536380"/>
  <nd ref="10201536384"/>
  <nd ref="10201536381"/>
  <nd ref="10201536383"/>
  <nd ref="10201536382"/>
  <nd ref="10201536386"/>
  <nd ref="10201536385"/>
  <nd ref="10201536387"/>
  <nd ref="4056397272"/>
  <nd ref="10201536388"/>
  <nd ref="10201536389"/>
  <nd ref="10201536390"/>
  <nd ref="10201536391"/>
  <nd ref="4056397285"/>
  <nd ref="10201536392"/>
  <nd ref="10201536393"/>
  <nd ref="10201536394"/>
  <nd ref="10201536395"/>
  <nd ref="10201536396"/>
  <nd ref="10201536397"/>
  <nd ref="10201536398"/>
  <nd ref="10201536399"/>
  <nd ref="10201536400"/>
  <nd ref="10201536401"/>
  <nd ref="10201536402"/>
  <nd ref="10201536403"/>
  <nd ref="10201536404"/>
  <nd ref="10201536405"/>
  <nd ref="10201536406"/>
  <nd ref="10201536407"/>
  <nd ref="10201536408"/>
  <nd ref="10201536409"/>
  <nd ref="10201536410"/>
  <nd ref="10201536411"/>
  <nd ref="10201536414"/>
  <nd ref="10201536412"/>
  <nd ref="10201536415"/>
  <nd ref="10201536413"/>
  <nd ref="10201536416"/>
  <nd ref="4056397208"/>
  <tag k="alt_name" v="Mount Panorama Scenic Road"/>
  <tag k="highway" v="residential"/>
  <tag k="maxspeed" v="60"/>
  <tag k="maxweight" v="5"/>
  <tag k="maxweight:bus" v="unrestricted"/>
  <tag k="name" v="The Esses"/>
  <tag k="source" v="NSW LPI Imagery"/>
  <tag k="surface" v="asphalt"/>
 </way>
 <way id="306192502" visible="true" version="9" changeset="129116993" timestamp="2022-11-19T10:05:44Z" user="Osaka78" uid="9300097">
  <nd ref="4056397208"/>
  <nd ref="10201537717"/>
  <nd ref="10201537718"/>
  <nd ref="10201537719"/>
  <nd ref="10201537720"/>
  <nd ref="10201537721"/>
  <nd ref="10201537722"/>
  <nd ref="10201537723"/>
  <nd ref="10201537724"/>
  <nd ref="10201537725"/>
  <nd ref="10091505273"/>
  <nd ref="10201537726"/>
  <nd ref="10201537727"/>
  <nd ref="10201537728"/>
  <nd ref="10201537729"/>
  <nd ref="10201537730"/>
  <nd ref="10201537731"/>
  <nd ref="10201537732"/>
  <nd ref="10201537733"/>
  <nd ref="10201537734"/>
  <nd ref="35122869"/>
  <tag k="alt_name" v="Mount Panorama Scenic Road"/>
  <tag k="highway" v="residential"/>
  <tag k="maxspeed" v="60"/>
  <tag k="maxweight" v="5"/>
  <tag k="maxweight:bus" v="unrestricted"/>
  <tag k="name" v="Forrest's Elbow"/>
  <tag k="source" v="NSW LPI Imagery"/>
  <tag k="surface" v="asphalt"/>
 </way>
 <way id="306192503" visible="true" version="7" changeset="129113095" timestamp="2022-11-19T08:05:09Z" user="Osaka78" uid="9300097">
  <nd ref="1453543487"/>
  <nd ref="10201184181"/>
  <nd ref="10201184182"/>
  <nd ref="10201184183"/>
  <nd ref="10201184184"/>
  <nd ref="10201184185"/>
  <nd ref="10201184186"/>
  <nd ref="10201184187"/>
  <nd ref="10201184188"/>
  <nd ref="10201184189"/>
  <nd ref="10201184190"/>
  <nd ref="6487271709"/>
  <nd ref="6487271710"/>
  <nd ref="6487271711"/>
  <nd ref="10201184192"/>
  <nd ref="10201184191"/>
  <nd ref="6487271716"/>
  <nd ref="6487271717"/>
  <nd ref="10201184193"/>
  <nd ref="10201184194"/>
  <nd ref="10201184195"/>
  <nd ref="10201184196"/>
  <nd ref="10201184197"/>
  <nd ref="10201184198"/>
  <nd ref="10201184199"/>
  <nd ref="10201184200"/>
  <nd ref="10201184201"/>
  <nd ref="10201184202"/>
  <nd ref="10201184203"/>
  <nd ref="10201184204"/>
  <nd ref="10201184205"/>
  <nd ref="10201184206"/>
  <nd ref="10201184207"/>
  <nd ref="10201184208"/>
  <nd ref="35122853"/>
  <tag k="alt_name" v="Mount Panorama Scenic Road"/>
  <tag k="highway" v="residential"/>
  <tag k="maxspeed" v="60"/>
  <tag k="maxweight" v="5"/>
  <tag k="maxweight:bus" v="unrestricted"/>
  <tag k="name" v="Reid Park"/>
  <tag k="source" v="NSW LPI Imagery"/>
  <tag k="surface" v="asphalt"/>
 </way>
 <way id="306192504" visible="true" version="6" changeset="129113095" timestamp="2022-11-19T08:05:09Z" user="Osaka78" uid="9300097">
  <nd ref="35122857"/>
  <nd ref="1453422001"/>
  <nd ref="35122858"/>
  <nd ref="10201193125"/>
  <nd ref="10201193126"/>
  <nd ref="1453422017"/>
  <nd ref="10201193127"/>
  <nd ref="440697159"/>
  <nd ref="10201193128"/>
  <nd ref="10201193129"/>
  <nd ref="10201193130"/>
  <nd ref="10201193131"/>
  <nd ref="10201193132"/>
  <nd ref="10201193133"/>
  <nd ref="10201193134"/>
  <nd ref="10201193135"/>
  <nd ref="10201193136"/>
  <nd ref="942921098"/>
  <tag k="alt_name" v="Mount Panorama Scenic Road"/>
  <tag k="highway" v="residential"/>
  <tag k="maxspeed" v="60"/>
  <tag k="maxweight" v="5"/>
  <tag k="maxweight:bus" v="unrestricted"/>
  <tag k="name" v="McPhillamy Park"/>
  <tag k="source" v="NSW LPI Imagery"/>
  <tag k="surface" v="asphalt"/>
 </way>
 <way id="306192511" visible="true" version="7" changeset="129117288" timestamp="2022-11-19T10:16:57Z" user="Osaka78" uid="9300097">
  <nd ref="3110398833"/>
  <nd ref="662088419"/>
  <nd ref="662088450"/>
  <nd ref="10201606747"/>
  <nd ref="10201606748"/>
  <nd ref="10201606749"/>
  <nd ref="3113677733"/>
  <nd ref="10201606750"/>
  <nd ref="35122545"/>
  <tag k="alt_name" v="Mount Panorama Scenic Road"/>
  <tag k="highway" v="residential"/>
  <tag k="maxspeed" v="60"/>
  <tag k="maxweight" v="5"/>
  <tag k="maxweight:bus" v="unrestricted"/>
  <tag k="name" v="Murrays Corner"/>
  <tag k="source" v="bing"/>
  <tag k="surface" v="asphalt"/>
 </way>
 <way id="306192512" visible="true" version="10" changeset="129117937" timestamp="2022-11-19T10:36:33Z" user="Osaka78" uid="9300097">
  <nd ref="662088425"/>
  <nd ref="4438410439"/>
  <nd ref="3890232203"/>
  <nd ref="10201136248"/>
  <tag k="alt_name" v="Mount Panorama Scenic Road"/>
  <tag k="highway" v="tertiary"/>
  <tag k="maxspeed" v="60"/>
  <tag k="maxweight" v="5"/>
  <tag k="maxweight:bus" v="unrestricted"/>
  <tag k="name" v="Pit Straight"/>
  <tag k="source" v="bing"/>
  <tag k="surface" v="asphalt"/>
 </way>
 <way id="306192513" visible="true" version="8" changeset="129116993" timestamp="2022-11-19T10:05:44Z" user="Osaka78" uid="9300097">
  <nd ref="35122872"/>
  <nd ref="662088226"/>
  <nd ref="6499063244"/>
  <nd ref="942921265"/>
  <nd ref="6499063245"/>
  <nd ref="35122873"/>
  <nd ref="10091505274"/>
  <nd ref="662088228"/>
  <nd ref="3110398832"/>
  <nd ref="35122874"/>
  <nd ref="6499063246"/>
  <nd ref="440697138"/>
  <nd ref="10201537760"/>
  <nd ref="6499063247"/>
  <nd ref="10201537761"/>
  <nd ref="10201537762"/>
  <nd ref="10201537763"/>
  <nd ref="10201537764"/>
  <nd ref="10201537765"/>
  <nd ref="10201537766"/>
  <nd ref="10201537767"/>
  <nd ref="10201537768"/>
  <nd ref="10201537769"/>
  <nd ref="10201537770"/>
  <nd ref="10201537771"/>
  <nd ref="10201537772"/>
  <nd ref="10201537773"/>
  <nd ref="10201537774"/>
  <nd ref="10201537775"/>
  <nd ref="35122877"/>
  <tag k="alt_name" v="Mount Panorama Scenic Road"/>
  <tag k="highway" v="residential"/>
  <tag k="maxspeed" v="60"/>
  <tag k="maxweight" v="5"/>
  <tag k="maxweight:bus" v="unrestricted"/>
  <tag k="name" v="The Chase"/>
  <tag k="source" v="NSW LPI Imagery"/>
  <tag k="surface" v="asphalt"/>
 </way>
 <way id="306192514" visible="true" version="5" changeset="129116993" timestamp="2022-11-19T10:05:44Z" user="Osaka78" uid="9300097">
  <nd ref="35122877"/>
  <nd ref="10201537776"/>
  <nd ref="10201537777"/>
  <nd ref="10201537778"/>
  <nd ref="10201537779"/>
  <nd ref="615150082"/>
  <nd ref="615150073"/>
  <nd ref="440697140"/>
  <nd ref="440697142"/>
  <nd ref="3110398833"/>
  <tag k="alt_name" v="Mount Panorama Scenic Road"/>
  <tag k="highway" v="residential"/>
  <tag k="maxspeed" v="60"/>
  <tag k="maxweight" v="5"/>
  <tag k="maxweight:bus" v="unrestricted"/>
  <tag k="name" v="Conrod Straight"/>
  <tag k="source" v="bing"/>
  <tag k="surface" v="asphalt"/>
 </way>
 <way id="385686852" visible="true" version="5" changeset="86840162" timestamp="2020-06-18T19:33:23Z" user="GinaroZ" uid="3432400">
  <nd ref="942921243"/>
  <nd ref="440709620"/>
  <nd ref="1453349823"/>
  <nd ref="1453349816"/>
  <nd ref="1453349813"/>
  <nd ref="1453349809"/>
  <nd ref="1377584858"/>
  <nd ref="7630562535"/>
  <nd ref="7630562534"/>
  <nd ref="440709621"/>
  <nd ref="3890232195"/>
  <nd ref="6519134337"/>
  <nd ref="440709622"/>
  <nd ref="6519134338"/>
  <nd ref="440709623"/>
  <nd ref="7630562531"/>
  <nd ref="6519134339"/>
  <nd ref="3890232188"/>
  <nd ref="6519134340"/>
  <nd ref="7630562530"/>
  <nd ref="440709624"/>
  <nd ref="6519134341"/>
  <nd ref="1453425712"/>
  <nd ref="440697134"/>
  <tag k="access" v="private"/>
  <tag k="highway" v="service"/>
  <tag k="name" v="Pit Lane"/>
  <tag k="source" v="bing"/>
  <tag k="surface" v="asphalt"/>
 </way>
 <way id="414156366" visible="true" version="5" changeset="129116993" timestamp="2022-11-19T10:05:44Z" user="Osaka78" uid="9300097">
  <nd ref="942921098"/>
  <nd ref="662087610"/>
  <nd ref="10201536344"/>
  <nd ref="10201536345"/>
  <nd ref="942921101"/>
  <tag k="alt_name" v="Mount Panorama Scenic Road"/>
  <tag k="highway" v="residential"/>
  <tag k="maxspeed" v="60"/>
  <tag k="maxweight" v="5"/>
  <tag k="maxweight:bus" v="unrestricted"/>
  <tag k="name" v="Brocks Skyline"/>
  <tag k="source" v="NSW LPI Imagery"/>
  <tag k="source:name" v="LPI NSW Base Map"/>
  <tag k="surface" v="asphalt"/>
 </way>
 <way id="414156370" visible="true" version="7" changeset="129112054" timestamp="2022-11-19T07:02:30Z" user="Osaka78" uid="9300097">
  <nd ref="35122841"/>
  <nd ref="7630562527"/>
  <nd ref="10201085403"/>
  <nd ref="10201085402"/>
  <nd ref="10201085410"/>
  <nd ref="10201085411"/>
  <nd ref="10201085412"/>
  <nd ref="10201085413"/>
  <nd ref="10201085409"/>
  <nd ref="3890232199"/>
  <tag k="alt_name" v="Mount Panorama Scenic Road"/>
  <tag k="highway" v="residential"/>
  <tag k="maxspeed" v="60"/>
  <tag k="maxweight" v="5"/>
  <tag k="maxweight:bus" v="unrestricted"/>
  <tag k="name" v="Hell Corner"/>
  <tag k="source" v="bing"/>
  <tag k="surface" v="asphalt"/>
 </way>
 <way id="414156373" visible="true" version="6" changeset="129117288" timestamp="2022-11-19T10:16:57Z" user="Osaka78" uid="9300097">
  <nd ref="35122545"/>
  <nd ref="10201606751"/>
  <nd ref="7630562519"/>
  <nd ref="10201606752"/>
  <nd ref="10201606753"/>
  <nd ref="10201606754"/>
  <nd ref="3890232194"/>
  <nd ref="10201606755"/>
  <nd ref="662088425"/>
  <tag k="alt_name" v="Mount Panorama Scenic Road"/>
  <tag k="highway" v="tertiary"/>
  <tag k="maxspeed" v="60"/>
  <tag k="maxweight" v="5"/>
  <tag k="maxweight:bus" v="unrestricted"/>
  <tag k="name" v="Murrays Corner"/>
  <tag k="source" v="bing"/>
  <tag k="surface" v="asphalt"/>
 </way>
 <way id="414156376" visible="true" version="6" changeset="129113095" timestamp="2022-11-19T08:05:09Z" user="Osaka78" uid="9300097">
  <nd ref="35122853"/>
  <nd ref="10201184209"/>
  <nd ref="10201184210"/>
  <nd ref="10201184211"/>
  <nd ref="6490385617"/>
  <nd ref="942921078"/>
  <nd ref="4056397140"/>
  <nd ref="35122854"/>
  <nd ref="4056397296"/>
  <nd ref="10201184212"/>
  <nd ref="942921081"/>
  <nd ref="35122855"/>
  <nd ref="4056397177"/>
  <nd ref="942921084"/>
  <nd ref="662087550"/>
  <nd ref="6490385619"/>
  <nd ref="10201184213"/>
  <nd ref="10201184214"/>
  <nd ref="10201184215"/>
  <nd ref="35122856"/>
  <nd ref="10201184216"/>
  <nd ref="10201193117"/>
  <nd ref="10201193118"/>
  <nd ref="10201193119"/>
  <nd ref="10201193120"/>
  <nd ref="10201193121"/>
  <nd ref="10201193122"/>
  <nd ref="10201193123"/>
  <nd ref="10201193124"/>
  <nd ref="35122857"/>
  <tag k="alt_name" v="Mount Panorama Scenic Road"/>
  <tag k="highway" v="residential"/>
  <tag k="maxspeed" v="60"/>
  <tag k="maxweight" v="5"/>
  <tag k="maxweight:bus" v="unrestricted"/>
  <tag k="name" v="Sulman Park"/>
  <tag k="source" v="NSW LPI Imagery"/>
  <tag k="surface" v="asphalt"/>
 </way>
 <way id="1115461019" visible="true" version="1" changeset="129117937" timestamp="2022-11-19T10:36:33Z" user="Osaka78" uid="9300097">
  <nd ref="10201136248"/>
  <nd ref="10201136247"/>
  <nd ref="10201136246"/>
  <nd ref="10201136245"/>
  <nd ref="10201136244"/>
  <nd ref="10201136243"/>
  <nd ref="10201136242"/>
  <nd ref="35122841"/>
  <tag k="alt_name" v="Mount Panorama Scenic Road"/>
  <tag k="highway" v="tertiary"/>
  <tag k="maxspeed" v="60"/>
  <tag k="maxweight" v="5"/>
  <tag k="maxweight:bus" v="unrestricted"/>
  <tag k="name" v="Hell Corner"/>
  <tag k="source" v="bing"/>
  <tag k="surface" v="asphalt"/>
 </way>
 <relation id="6942508" visible="true" version="5" changeset="129117937" timestamp="2022-11-19T10:36:33Z" user="Osaka78" uid="9300097">
  <member type="way" ref="385686852" role="pit_lane"/>
  <member type="way" ref="37594848" role="pit_lane"/>
  <member type="way" ref="306192512" role="circuit"/>
  <member type="way" ref="1115461019" role="circuit"/>
  <member type="way" ref="414156370" role="circuit"/>
  <member type="way" ref="30111085" role="circuit"/>
  <member type="way" ref="30111102" role="circuit"/>
  <member type="way" ref="306192500" role="circuit"/>
  <member type="way" ref="306192503" role="circuit"/>
  <member type="way" ref="414156376" role="circuit"/>
  <member type="way" ref="306192504" role="circuit"/>
  <member type="way" ref="414156366" role="circuit"/>
  <member type="way" ref="306192501" role="circuit"/>
  <member type="way" ref="306192502" role="circuit"/>
  <member type="way" ref="30111107" role="circuit"/>
  <member type="way" ref="306192513" role="circuit"/>
  <member type="way" ref="306192514" role="circuit"/>
  <member type="way" ref="306192511" role="circuit"/>
  <member type="way" ref="414156373" role="circuit"/>
  <tag k="name" v="Mount Panorama Circuit"/>
  <tag k="type" v="circuit"/>
  <tag k="wikidata" v="Q1950645"/>
  <tag k="wikipedia" v="en:Mount Panorama Circuit"/>
 </relation>
</osm>
